{"type":"FeatureCollection","features":[{"type":"Feature","properties":{"name":"ZEE Gabon","layer":"eez","source":"Marine Regions EEZ v12 CC-BY-4.0"},"geometry":{"type":"MultiPolygon","coordinates":[[[[9.30956483,-1.93359375],[9.35615575,-1.9763453],[9.34247172,-1.9689337],[9.40901434,-2.05176485],[9.43555534,-2.07288837],[9.44674742,-2.08853114],[9.58516836,-2.25341022],[9.58677685,-2.29963446],[9.63043535,-2.4094516],[9.66963351,-2.43833363],[9.72837114,-2.47720754],[9.72789252,-2.45747435],[9.71502805,-2.47719908],[9.79260027,-2.51014721],[9.79852951,-2.49039304],[9.80712986,-2.47133243],[9.82085228,-2.4609375],[9.83098757,-2.4550004],[9.83802986,-2.45168006],[9.83956134,-2.4609375],[9.83091116,-2.47500575],[9.83867276,-2.49170244],[9.857023,-2.48827446],[9.85660922,-2.47601962],[9.84903204,-2.45366538],[9.87162685,-2.45440996],[9.8756777,-2.45251894],[9.88085783,-2.43421173],[9.88602507,-2.42281413],[9.89694905,-2.44870782],[9.88870752,-2.4609375],[9.87616491,-2.48452044],[9.87945783,-2.48866451],[9.88795984,-2.4720304],[9.90350723,-2.45800781],[9.90946233,-2.46167076],[9.90059304,-2.48527658],[9.89806104,-2.49639332],[9.89895487,-2.51535284],[9.90828502,-2.49226534],[9.92634547,-2.49066436],[9.93043435,-2.50583327],[9.92740881,-2.51599431],[9.95786774,-2.51773071],[9.96815693,-2.49593043],[9.98179042,-2.51418972],[9.99004924,-2.52498376],[9.99864554,-2.52821541],[10.00210381,-2.54255152],[10.01554132,-2.55764258],[9.99279678,-2.54332662],[9.98509741,-2.55186451],[9.99212277,-2.5553894],[9.98971272,-2.57308245],[9.99811065,-2.58366323],[9.98837137,-2.60213447],[10.0093472,-2.61292136],[10.01693058,-2.62745881],[10.02213383,-2.61070704],[10.03112864,-2.60670865],[10.03758001,-2.59844685],[10.05683768,-2.58360302],[10.05509281,-2.55993736],[10.06979656,-2.56614745],[10.07973647,-2.57268465],[10.08397794,-2.59176397],[10.0949645,-2.60415292],[10.11989665,-2.62468755],[10.14002645,-2.60811675],[10.11793387,-2.56710267],[10.10520053,-2.53855062],[10.08867955,-2.54977715],[10.08476174,-2.53734422],[10.08429468,-2.50936735],[10.09866476,-2.52468824],[10.10902202,-2.53144908],[10.12242615,-2.54314685],[10.13262343,-2.54714346],[10.15039802,-2.55998707],[10.16911995,-2.57481587],[10.19117212,-2.5850383],[10.20983863,-2.59569895],[10.22136581,-2.59120882],[10.22381735,-2.60776174],[10.20047915,-2.60480177],[10.21890867,-2.61690021],[10.22022951,-2.63220525],[10.19559157,-2.63630021],[10.18395507,-2.62822652],[10.16781461,-2.61051488],[10.15370584,-2.63671875],[10.12710476,-2.6427294],[10.12354696,-2.66853917],[10.11942732,-2.65388644],[10.10554111,-2.63591063],[10.09349465,-2.64569175],[10.09126711,-2.6543864],[10.09120071,-2.67932367],[10.05919135,-2.69124722],[10.04827857,-2.68998075],[10.05136955,-2.67243695],[10.03219128,-2.68985617],[10.03296745,-2.70572877],[10.00074971,-2.71081626],[10.02440262,-2.68872452],[10.01161373,-2.68110573],[10.01122582,-2.66014266],[10.03287244,-2.66205215],[10.02429533,-2.65277255],[10.01239514,-2.64522755],[9.99635887,-2.64409697],[9.99123287,-2.63904214],[9.98512447,-2.64248574],[9.98906314,-2.65559542],[9.97937298,-2.66501665],[9.97479761,-2.64999855],[9.96968687,-2.63671875],[9.96298516,-2.63671875],[9.94551802,-2.61856675],[9.92564964,-2.59836876],[9.91188455,-2.58728445],[9.90384615,-2.56949615],[9.89859724,-2.58620536],[9.88790083,-2.59642816],[9.87893414,-2.57184696],[9.85919118,-2.55209231],[9.8603729,-2.53725052],[9.84654272,-2.55253482],[9.84375,-2.53711224],[9.84479928,-2.50211751],[9.82860243,-2.51481974],[9.82114351,-2.50909233],[9.81948495,-2.47560513],[9.82445455,-2.4878906],[9.81608057,-2.50996816],[9.8011018,-2.50804436],[9.80310655,-2.53978884],[9.78689992,-2.52187455],[9.72497976,-2.49298763],[9.69267082,-2.45690393],[9.65617216,-2.43296015],[9.7900213,-2.56636143],[9.88348544,-2.68727791],[9.91003752,-2.71082127],[9.98849022,-2.76773965],[10.04747724,-2.8125],[10.1953125,-2.92131686],[10.28194547,-2.98307753],[10.30645084,-2.97334337],[10.35886991,-2.93752945],[10.36965931,-2.96195054],[10.38575053,-2.97509396],[10.38247168,-2.99829602],[10.41958213,-2.98914587],[10.43501556,-3.00829875],[10.46527994,-2.98485827],[10.49598336,-2.94877863],[10.50830925,-2.88323104],[10.5346086,-2.84404886],[10.52776635,-2.85374105],[10.49211514,-2.91884291],[10.48596036,-2.95973623],[10.46583104,-2.98828125],[10.43753803,-3.00557995],[10.41849566,-2.99973691],[10.40148425,-2.98946893],[10.38098323,-2.9813441],[10.3656075,-2.95248902],[10.36348724,-2.9378525],[10.30842817,-2.96943808],[10.27885497,-2.98496795],[10.50877464,-3.19388485],[10.546875,-3.25753343],[10.66059673,-3.34315395],[10.67205155,-3.39407897],[10.68309414,-3.42844522],[10.71238422,-3.46177304],[10.7574079,-3.50913787],[10.81950927,-3.55005586],[10.89881873,-3.60511947],[10.94390905,-3.62782276],[10.98009336,-3.67112195],[10.98864722,-3.68424165],[11.00429738,-3.68460751],[11.02133358,-3.69915748],[11.06600285,-3.70882046],[11.08229315,-3.69019473],[11.09542966,-3.70940936],[11.11002195,-3.73063135],[11.14835703,-3.75786388],[11.17598641,-3.78944898],[11.16428244,-3.79476845],[11.1093297,-3.76836515],[11.09147358,-3.74116194],[11.04742801,-3.72742915],[11.01968277,-3.7148056],[10.97271526,-3.70178032],[10.92909586,-3.66530335],[10.89596641,-3.61675072],[10.8580507,-3.58673537],[10.75926554,-3.515625],[10.70162845,-3.47365725],[10.7002089,-3.45851541],[10.66002893,-3.43167782],[10.66014278,-3.34419251],[10.64598787,-3.43045115],[10.87723827,-3.62302685],[11.01981688,-3.78616107],[11.02216697,-3.85901392],[11.08287084,-3.90690005],[11.10313237,-3.92547464],[11.15068291,-3.95522318],[11.12478274,-3.9857791],[10.91953731,-4.3095381],[8.8796109,-6.43309288],[8.85269304,-6.40976117],[8.8061348,-6.36860611],[8.76508895,-6.33150652],[8.72240519,-6.29157912],[8.68564454,-6.25603043],[8.6442992,-6.21472303],[8.60872919,-6.17798648],[8.56876624,-6.13534381],[8.53442467,-6.09745918],[8.49588653,-6.0535274],[8.47024988,-6.02342956],[8.45386933,-6.00382489],[8.42917954,-5.97362278],[8.39733187,-5.93362168],[8.36169307,-5.88731074],[8.3379115,-5.86398948],[8.31576754,-5.84251798],[8.29388988,-5.82096127],[8.24685338,-5.77335529],[8.20451887,-5.72883259],[8.15715444,-5.67699858],[8.11661143,-5.63083927],[8.08675432,-5.59575511],[8.07192332,-5.57794217],[8.04593949,-5.54608046],[8.01417248,-5.50603401],[7.97861493,-5.45967943],[7.94854883,-5.42477233],[7.90240541,-5.39020712],[7.84766677,-5.34796582],[7.80843047,-5.31681039],[7.7715114,-5.28661514],[7.7473687,-5.26644808],[7.729732,-5.25139793],[7.69334698,-5.21972604],[7.66141674,-5.19115119],[7.62537509,-5.15799523],[7.59424395,-5.12855065],[7.54412641,-5.07934966],[7.52251707,-5.05763554],[7.49132515,-5.02552284],[7.47368983,-5.0069324],[7.43396022,-4.96440869],[7.38767004,-4.91638214],[7.34467449,-4.88886398],[7.29606209,-4.85660178],[7.25399328,-4.82768394],[7.20646622,-4.79383986],[7.16536924,-4.76355364],[7.11897842,-4.72816431],[7.07889726,-4.69654248],[7.03369231,-4.65964618],[7.01502677,-4.64406075],[6.99553124,-4.62746889],[6.96299898,-4.59922926],[7.16365068,-3.15867],[7.28731014,-1.50299732],[8.23333333,0.73416667],[9.29602804,0.81141067],[9.41167729,0.94418249],[9.51812056,0.96059321],[9.55442985,1.02147044],[9.57536032,1.01974883],[9.57765335,1.0195299],[9.58027236,1.01946677],[9.58274397,1.01962547],[9.5859593,1.01999812],[9.59540699,1.02102848],[9.59974842,1.02398957],[9.60419874,1.02604987],[9.61191062,1.02893948],[9.61784375,1.02797572],[9.6212141,1.02880177],[9.62999781,1.03204863],[9.63182563,1.03277633],[9.63390214,1.03328335],[9.63560916,1.03378724],[9.63742648,1.03464525],[9.63909887,1.03566707],[9.64124583,1.03686676],[9.64693044,1.04313079],[9.64822133,1.04497235],[9.64930877,1.04653858],[9.65018767,1.04837601],[9.65064485,1.0494108],[9.65138501,1.05124537],[9.65187482,1.05282157],[9.65217517,1.05387331],[9.65254108,1.05545393],[9.65552457,1.05983564],[9.65652885,1.06083539],[9.65931459,1.06303474],[9.66065646,1.06349192],[9.66258196,1.06428875],[9.66386743,1.06474687],[9.66792466,1.06595497],[9.66911906,1.0661537],[9.67096221,1.06654293],[9.67271943,1.06706421],[9.67901315,1.06706204],[9.68052196,1.06551781],[9.68209963,1.06457757],[9.68415817,1.06386137],[9.68577216,1.06344688],[9.68755871,1.06319844],[9.68961777,1.06326222],[9.69173163,1.06370016],[9.69369871,1.064317],[9.69511762,1.06484333],[9.69706532,1.06545321],[9.69850951,1.06586177],[9.70040693,1.06652029],[9.70201494,1.06721416],[9.70475719,1.06848896],[9.70670106,1.06881911],[9.70846822,1.06882927],[9.71055118,1.06897904],[9.71200857,1.06906572],[9.71736638,1.06928931],[9.71942294,1.06837452],[9.72165811,1.06748157],[9.72387551,1.06681213],[9.72607514,1.06636622],[9.72825701,1.06614382],[9.72988284,1.0661101],[9.73203671,1.06623988],[9.73348814,1.06657274],[9.73467075,1.06698638],[9.73616386,1.06758328],[9.73761814,1.06827235],[9.73949176,1.0693465],[9.7428142,1.07155977],[9.75049131,1.06678684],[9.75107074,1.06531301],[9.75189619,1.0634299],[9.75261114,1.06199918],[9.7531378,1.06096139],[9.75365679,1.05995181],[9.7551491,1.05763119],[9.75609948,1.05657073],[9.75681777,1.05581131],[9.75820993,1.05412993],[9.75907387,1.05287554],[9.7603601,1.05138779],[9.76149169,1.05023809],[9.76265528,1.04912085],[9.76383361,1.0480172],[9.76527237,1.04666699],[9.76672228,1.0455703],[9.76786914,1.04468091],[9.76908219,1.04370895],[9.77021722,1.04270895],[9.77092359,1.04215432],[9.77178947,1.04148172],[9.77270437,1.040824],[9.77342732,1.04024462],[9.77453881,1.03939295],[9.77553087,1.03860419],[9.77694932,1.03747852],[9.77787974,1.03675396],[9.78005458,1.03457605],[9.78105327,1.03359988],[9.78241293,1.03239782],[9.78436728,1.03102231],[9.78516912,1.03027342],[9.78554224,1.02941504],[9.78599954,1.02823206],[9.78668015,1.02676111],[9.78706159,1.02574001],[9.78753689,1.0241962],[9.78777156,1.02329415],[9.78811192,1.02180113],[9.7885371,1.02018726],[9.78894928,1.01880186],[9.78913538,1.01558979],[9.78898174,1.01414692],[9.78896807,1.01238155],[9.78903617,1.01109426],[9.78900546,1.00968741],[9.78902349,1.00861158],[9.78904151,1.00753574],[9.78905954,1.0064599],[9.7899065,1.00484655],[9.79077439,1.00339172],[9.79230393,1.00067826],[9.79505622,0.99968339],[9.79623515,0.99923783],[9.79802086,0.99905792],[9.79909268,0.99911559],[9.80016459,0.99921302],[9.8011913,0.99932267],[9.80226969,0.99942646],[9.80320177,0.99953544],[9.80459237,0.99970402],[9.80557121,0.99992216],[9.80651579,0.99991672],[9.807668,0.99991874],[9.80909728,1.00007766],[9.810505,1.00061454],[9.81137208,1.00110895],[9.81226212,1.00158394],[9.81310662,1.00203365],[9.81402515,1.00250095],[9.81488478,1.00291909],[9.8161005,1.00351864],[9.81698059,1.00378993],[9.81788908,1.00401225],[9.81876264,1.004135],[9.81990079,1.00434513],[9.82087921,1.00440266],[9.82182137,1.00442139],[9.82287994,1.00444622],[9.8241106,1.00444051],[9.82512406,1.00458742],[9.82606646,1.00469261],[9.82713369,1.00482526],[9.82821863,1.00499961],[9.82922798,1.0051843],[9.83016492,1.00532592],[9.83164082,1.0053614],[9.83273916,1.0053957],[9.83351809,1.00536502],[9.83432329,1.00516315],[9.83595939,1.00489157],[9.83704279,1.0046931],[9.83793455,1.00476358],[9.83891789,1.00485154],[9.83996404,1.00494728],[9.8409049,1.00492234],[9.8419964,1.00490854],[9.84327188,1.0048783],[9.8448751,1.00439052],[9.84567224,1.00396725],[9.84679833,1.00341866],[9.84766376,1.00299248],[9.84857163,1.0025161],[9.84970391,1.00169419],[9.85073821,1.00096444],[9.85158544,1.00023168],[9.8526052,0.99944369],[9.853446,0.99885641],[9.85428765,0.99818613],[9.85524947,0.99759152],[9.85621276,0.9970358],[9.8571909,0.99654689],[9.85815292,0.99611854],[9.85906837,0.99573303],[9.85998324,0.9953469],[9.86100247,0.99503842],[9.86210861,0.99489236],[9.86305015,0.99470206],[9.86397487,0.99448622],[9.86521935,0.99432651],[9.86622471,0.99420849],[9.867113,0.99406051],[9.8682021,0.99386478],[9.86915167,0.99370346],[9.87012862,0.9935409],[9.87126161,0.99327073],[9.87284348,0.9924669],[9.87384503,0.99209205],[9.87465525,0.99172888],[9.87543712,0.99130663],[9.87618766,0.99081913],[9.87705491,0.99016456],[9.87808166,0.98930312],[9.87921442,0.9885102],[9.8801882,0.98772697],[9.88084805,0.98705507],[9.88155774,0.98617182],[9.88226496,0.98541404],[9.88300489,0.98456464],[9.88373774,0.98385757],[9.88441381,0.98317964],[9.88524309,0.98232667],[9.88593337,0.98135],[9.88662569,0.98041859],[9.88699751,0.97963763],[9.88736194,0.97869951],[9.8877157,0.97764055],[9.88787114,0.97683155],[9.88802362,0.97581814],[9.88813824,0.97492614],[9.88820187,0.97370249],[9.88829263,0.97262563],[9.88832891,0.97169328],[9.88841101,0.97061747],[9.88846835,0.96962356],[9.88860918,0.96857265],[9.88875481,0.96752181],[9.88888235,0.96657784],[9.88903013,0.96550569],[9.88917808,0.96443358],[9.88950047,0.96330184],[9.88983424,0.96230359],[9.89006938,0.96139332],[9.89039367,0.96032742],[9.89076533,0.9594757],[9.89127253,0.95861397],[9.8917416,0.95778973],[9.89226614,0.95686498],[9.89286071,0.95598342],[9.89343513,0.95525746],[9.89403432,0.95435744],[9.89479963,0.95338232],[9.89561292,0.95228565],[9.89618506,0.95177773],[9.89714499,0.95128683],[9.89810568,0.95085828],[9.89898495,0.95046077],[9.8997845,0.9500763],[9.90071525,0.94961052],[9.90170287,0.9491874],[9.90253547,0.94884651],[9.90355985,0.94842267],[9.90445457,0.94800537],[9.90546356,0.94750375],[9.90636676,0.94714366],[9.90728177,0.94674657],[9.90827893,0.9463468],[9.90928674,0.94597309],[9.91020935,0.9456717],[9.91097334,0.94536718],[9.91195378,0.94492648],[9.91278431,0.94459226],[9.91390903,0.944273],[9.91471385,0.94418336],[9.9160949,0.94414402],[9.91712401,0.94418642],[9.91805169,0.94415588],[9.9191031,0.94403692],[9.92008257,0.94379675],[9.84926522,1.00009406],[9.78421617,0.9815042],[9.71658897,1.04954791],[9.72051263,1.04078925],[9.68987155,1.05217636],[9.65717375,1.02777958],[9.60694814,1.01424801],[9.57440971,0.99270475],[9.55590224,0.93292427],[9.58022094,0.84472835],[9.60170186,0.78893256],[9.61711538,0.73600054],[9.61169815,0.68202364],[9.61053133,0.60937643],[9.61905324,0.58834183],[9.63668633,0.5565536],[9.61663628,0.56678641],[9.60774112,0.51904881],[9.67251801,0.45455015],[9.68211663,0.48001325],[9.66796422,0.43644834],[9.64076924,0.48252344],[9.60788083,0.45581484],[9.64671636,0.41338325],[9.64016676,0.42824101],[9.57213211,0.46327925],[9.57843316,0.49426365],[9.53738844,0.4822824],[9.56664264,0.50507307],[9.56252944,0.53691721],[9.54772615,0.59164155],[9.54327321,0.54954004],[9.51247644,0.52558231],[9.51255584,0.52734375],[9.52789175,0.57544065],[9.49770057,0.59273875],[9.4450494,0.56935775],[9.44102836,0.50906694],[9.43777895,0.52734375],[9.46050954,0.59305632],[9.53278124,0.5902909],[9.5223695,0.64378667],[9.49542046,0.66762936],[9.44767225,0.64147592],[9.36806595,0.61831045],[9.31689465,0.61127412],[9.30893111,0.54022145],[9.33263576,0.52022135],[9.39389014,0.47377992],[9.43538487,0.40091574],[9.4740411,0.34144163],[9.49529827,0.29061317],[9.51129651,0.28975797],[9.53899956,0.29139066],[9.57834685,0.355093],[9.58286834,0.3515625],[9.56587195,0.30341446],[9.59445751,0.26650047],[9.65308106,0.23654962],[9.67002571,0.24274814],[9.66674554,0.21823502],[9.72538137,0.25626242],[9.72195303,0.20267296],[9.79840851,0.16883516],[9.79023576,0.20461524],[9.79090536,0.20145476],[9.83503032,0.16916466],[9.87214315,0.17593431],[9.97181904,0.17578125],[10.03418601,0.20092678],[10.08993268,0.16688275],[10.13414466,0.20955122],[10.16849732,0.22863305],[10.17885578,0.25281894],[10.13477373,0.2053982],[10.10137391,0.17770541],[10.1262362,0.1662147],[10.15249515,0.18041801],[10.18069053,0.16811097],[10.14146197,0.17578125],[10.07621563,0.16765773],[10.00379193,0.17054153],[9.94308031,0.17578125],[9.85928023,0.15125716],[9.83708286,0.11822414],[9.83573592,0.10399151],[9.82210422,0.1230309],[9.83896005,0.08548236],[9.81627321,0.13326764],[9.75867975,0.116696],[9.84375,0.01534593],[9.84717774,0.01099455],[9.80375147,0.02499747],[9.74933445,0.10661244],[9.66105735,0.12351632],[9.68573046,0.10584617],[9.68505847,0.10438311],[9.63266695,0.15183723],[9.59356546,0.12971365],[9.58928573,0],[9.60013783,0.02649248],[9.57495165,0.01811135],[9.59953904,0.06204975],[9.57669437,0.15266335],[9.51482713,0.17278457],[9.49966514,0.12041712],[9.49964595,0.07580721],[9.48535144,0.04994404],[9.49354172,0.06040585],[9.4638164,0.10782754],[9.44576991,0.09588623],[9.46396518,0.16498637],[9.43861985,0.17799318],[9.43798614,0.18324852],[9.41286314,0.20278692],[9.40230417,0.18634307],[9.37568796,0.18674231],[9.37517285,0.17838466],[9.36735785,0.19375884],[9.37985027,0.20315504],[9.38558495,0.24695241],[9.36745691,0.29105485],[9.35585904,0.35034585],[9.31172585,0.32460845],[9.30716944,0.27881873],[9.32156134,0.16083455],[9.34178233,-0.03220856],[9.32138097,-0.17293477],[9.30120897,-0.27647865],[9.26000714,-0.45604062],[9.18430138,-0.55381215],[9.14547324,-0.60165906],[9.1048218,-0.64043605],[9.11636114,-0.68805695],[9.13770485,-0.7257905],[9.16487002,-0.79907083],[9.14395463,-0.86226738],[9.140625,-0.82924104],[9.15062952,-0.78187466],[9.13674808,-0.75738776],[9.10965395,-0.703125],[9.08708835,-0.7975862],[9.0600183,-0.81794083],[9.05397725,-0.86008644],[9.06592166,-0.80673754],[9.09423602,-0.74580991],[9.04855704,-0.73743367],[9.02430296,-0.83995593],[9.01263165,-0.90205216],[9.04568124,-0.97291195],[9.0807507,-1.02713597],[9.19547987,-1.04500747],[9.23289955,-1.0716629],[9.32254458,-1.0546875],[9.39026511,-0.99276876],[9.4921875,-0.99609375],[9.57853675,-0.95998216],[9.64049625,-0.93227196],[9.67520654,-0.91817331],[9.72726166,-0.87184894],[9.72268832,-0.88312244],[9.62572193,-0.94159436],[9.52831244,-0.99835157],[9.54995441,-1.00687742],[9.54673564,-1.02597797],[9.53166854,-1.02371645],[9.46448827,-1.02199531],[9.41626465,-1.07798552],[9.38460577,-1.09163153],[9.43327713,-1.11157346],[9.47679555,-1.10633087],[9.49483585,-1.13124871],[9.50645936,-1.13243473],[9.52969301,-1.12851393],[9.55926836,-1.11815751],[9.52681255,-1.13799882],[9.52452052,-1.18051934],[9.50467062,-1.17536986],[9.48698056,-1.15586627],[9.44758534,-1.12981248],[9.40436995,-1.11149013],[9.38426745,-1.10248184],[9.31427813,-1.10012901],[9.22106683,-1.08880198],[9.15348268,-1.12056625],[9.14793158,-1.18864977],[9.18771863,-1.2238816],[9.17193365,-1.32109058],[9.12310994,-1.37934196],[9.13202035,-1.39466846],[9.14796305,-1.38630486],[9.16456068,-1.37962043],[9.17313397,-1.43050671],[9.20369935,-1.44367754],[9.23676908,-1.44138622],[9.25750494,-1.41265297],[9.26299381,-1.39844966],[9.28715181,-1.39866257],[9.31573725,-1.41576314],[9.33513045,-1.39388251],[9.33587837,-1.36424637],[9.34534061,-1.32314873],[9.34848273,-1.36363888],[9.35121405,-1.39220536],[9.34395421,-1.43376625],[9.31448746,-1.44485557],[9.29279983,-1.45058107],[9.29118145,-1.47035265],[9.29051112,-1.50299732],[9.27225196,-1.49320436],[9.23177087,-1.47865784],[9.24825596,-1.50299732],[9.27403855,-1.53149426],[9.27906525,-1.56399763],[9.29787624,-1.60822797],[9.32824647,-1.60640585],[9.38265216,-1.59873915],[9.43382025,-1.56239092],[9.43310225,-1.52293634],[9.45920324,-1.49961364],[9.48583055,-1.54494762],[9.49233305,-1.58956242],[9.50404573,-1.62444186],[9.5698446,-1.64359832],[9.51738405,-1.63888562],[9.45243478,-1.63997793],[9.43269765,-1.65190005],[9.42288685,-1.69520712],[9.42631412,-1.72958207],[9.40433145,-1.66683042],[9.37788916,-1.64886034],[9.32021654,-1.67988825],[9.32570505,-1.68815565],[9.31692815,-1.6827538],[9.29359448,-1.67800534],[9.30076826,-1.68753386],[9.30159807,-1.70772874],[9.28420258,-1.69208396],[9.27757394,-1.68140113],[9.26873982,-1.67404997],[9.27512336,-1.65475702],[9.2817322,-1.65136206],[9.27971721,-1.6337682],[9.26177001,-1.59449077],[9.26371574,-1.58311403],[9.23422754,-1.57485688],[9.17585945,-1.51707423],[9.13418722,-1.46591055],[9.09603667,-1.41233122],[9.01607132,-1.33611882],[8.99547005,-1.29232764],[9.00008035,-1.3083204],[9.07888305,-1.42029262],[9.1788789,-1.54812932],[9.22703791,-1.62371552],[9.24528444,-1.69150066],[9.26958585,-1.75335157],[9.26932442,-1.77306461],[9.26255465,-1.84672916],[9.28914392,-1.86367011],[9.31186557,-1.85928106],[9.32517076,-1.85877395],[9.31668437,-1.86837697],[9.32999265,-1.86498904],[9.31609082,-1.87990987],[9.32530272,-1.88903356],[9.3143748,-1.91203702],[9.34505105,-1.90602815],[9.35276163,-1.88859701],[9.36633384,-1.87088776],[9.37348163,-1.86265552],[9.38993406,-1.85243154],[9.39854944,-1.85076904],[9.41411746,-1.89416981],[9.43432033,-1.88835132],[9.46193421,-1.89520121],[9.47165811,-1.87366092],[9.5004549,-1.90225375],[9.50396597,-1.93486333],[9.52372015,-1.96803141],[9.51100981,-2.00359094],[9.54130375,-2.01881194],[9.56224143,-2.03573072],[9.56872845,-2.05069268],[9.56482255,-2.07932305],[9.54279995,-2.08731365],[9.53478181,-2.05913711],[9.53422606,-2.03974652],[9.51081991,-2.03382397],[9.48741341,-2.01772261],[9.47020221,-2.00711036],[9.48650193,-1.99071026],[9.48171794,-1.95112991],[9.46339631,-1.9326545],[9.45374227,-1.93419945],[9.43427503,-1.94385815],[9.38978064,-1.95449746],[9.38004696,-1.94452143],[9.38630772,-1.92948735],[9.37084663,-1.93541515],[9.36140311,-1.94214213],[9.35782254,-1.95559847],[9.34501696,-1.93858433],[9.36122584,-1.92111504],[9.3394773,-1.92811978],[9.33167684,-1.93049705],[9.31428456,-1.91649115],[9.27283692,-1.88030553],[9.30956483,-1.93359375]],[[9.30956483,-1.93359375],[9.30714285,-1.93160343],[9.30701721,-1.93153358],[9.30788934,-1.93359375],[9.30816865,-1.93359375],[9.32453322,-1.95222998],[9.33052385,-1.95723736],[9.33069301,-1.95718026],[9.30956483,-1.93359375]],[[11.14486492,-3.78866971],[11.14598441,-3.78873026],[11.14818084,-3.78780675],[11.14618337,-3.78284025],[11.14515412,-3.78345287],[11.1446141,-3.78510773],[11.14432347,-3.7870537],[11.14449155,-3.78847563],[11.14486492,-3.78866971]],[[10.91557801,-3.62423623],[10.91659761,-3.62437201],[10.91913843,-3.62336671],[10.92089295,-3.62326515],[10.92244625,-3.62212694],[10.92310762,-3.62036002],[10.9231137,-3.61975896],[10.92217255,-3.61741793],[10.91732144,-3.61727202],[10.91505122,-3.61576271],[10.91434658,-3.62048662],[10.91300118,-3.62190938],[10.91312563,-3.62261641],[10.91557801,-3.62423623]],[[10.70764291,-3.47680795],[10.7111665,-3.47869265],[10.71095252,-3.47731745],[10.70848346,-3.47634137],[10.70796084,-3.47624874],[10.70764291,-3.47680795]],[[10.66662335,-3.40162945],[10.66855061,-3.40168965],[10.66840732,-3.40049374],[10.66949594,-3.40001261],[10.66884625,-3.3985399],[10.67008066,-3.39795744],[10.67118931,-3.39670944],[10.66962695,-3.39177883],[10.67060935,-3.38933456],[10.66913605,-3.38673651],[10.66740215,-3.39076805],[10.66799057,-3.39448524],[10.66598678,-3.39726472],[10.66662335,-3.40162945]],[[10.26960981,-2.97870123],[10.27128124,-2.97890866],[10.26895964,-2.97675943],[10.26813114,-2.97698832],[10.26903021,-2.97828186],[10.26960981,-2.97870123]],[[10.20341027,-2.62820876],[10.20514691,-2.62971377],[10.20546556,-2.62904692],[10.20504224,-2.62796116],[10.20356154,-2.62747037],[10.20341027,-2.62820876]],[[10.19506812,-2.62741137],[10.1953125,-2.62806904],[10.19661665,-2.62862635],[10.1956923,-2.63049161],[10.19593728,-2.63073814],[10.19750237,-2.63044906],[10.19803464,-2.62664342],[10.19805753,-2.62617516],[10.19715285,-2.62556088],[10.1953125,-2.62695313],[10.19506812,-2.62741137]],[[10.19321108,-2.62371755],[10.19152927,-2.62770176],[10.19192874,-2.62794101],[10.19318402,-2.62776923],[10.19478214,-2.62626052],[10.1953125,-2.625],[10.19555676,-2.62368464],[10.1953125,-2.62304676],[10.19433105,-2.62309432],[10.19422805,-2.62278986],[10.19321752,-2.62083495],[10.19001687,-2.62172461],[10.19321108,-2.62371755]],[[10.19014645,-2.61351383],[10.19262338,-2.61428988],[10.19325185,-2.61290741],[10.19292891,-2.61256731],[10.19227934,-2.61264741],[10.19014645,-2.61351383]],[[10.18392992,-2.61035836],[10.18426383,-2.61057043],[10.1856631,-2.61102855],[10.18574357,-2.61063051],[10.18576205,-2.60897303],[10.18373215,-2.60941243],[10.18392992,-2.61035836]],[[10.16272926,-2.61264682],[10.16317654,-2.60614645],[10.16084611,-2.60381806],[10.15629065,-2.60577786],[10.1531924,-2.60894525],[10.15480065,-2.61157358],[10.1563642,-2.61240315],[10.16134906,-2.61348665],[10.16205895,-2.61340535],[10.16272926,-2.61264682]],[[10.16167057,-2.58435631],[10.16233003,-2.58053112],[10.16271102,-2.57764661],[10.15996635,-2.57669997],[10.16012836,-2.58328676],[10.16140187,-2.58450663],[10.16167057,-2.58435631]],[[10.11002886,-2.54567552],[10.1096704,-2.54522288],[10.10921907,-2.54566765],[10.10951114,-2.54698408],[10.1102823,-2.54790485],[10.11055267,-2.54775381],[10.11002886,-2.54567552]],[[10.09016931,0.16302943],[10.09257686,0.16074884],[10.09327114,0.16075551],[10.0943166,0.16117012],[10.09469485,0.16156292],[10.09591544,0.16390204],[10.09591854,0.16453564],[10.09570456,0.16530073],[10.09326327,0.16634595],[10.0901767,0.16348195],[10.09016931,0.16302943]],[[10.08531106,-2.64555311],[10.08264816,-2.64858437],[10.08041334,-2.64728737],[10.0797435,-2.6481204],[10.07723141,-2.64729607],[10.07829535,-2.64948821],[10.07778192,-2.65104771],[10.07864034,-2.65186226],[10.08041835,-2.65255785],[10.08069432,-2.65256858],[10.08199704,-2.65127611],[10.08378291,-2.65153158],[10.08253682,-2.65298772],[10.08370125,-2.65370274],[10.08464253,-2.65320754],[10.08718395,-2.65277231],[10.08583891,-2.6524744],[10.08581316,-2.65216815],[10.08691442,-2.64831364],[10.08712554,-2.64775884],[10.08688414,-2.64660835],[10.0866003,-2.64612257],[10.08531106,-2.64555311]],[[10.08074284,-2.66359067],[10.07303381,-2.66776347],[10.0626899,-2.66951871],[10.05814695,-2.67508185],[10.0710119,-2.68210316],[10.07849586,-2.68136811],[10.08074284,-2.66359067]],[[10.08008254,-2.60455334],[10.08078384,-2.60230136],[10.07916427,-2.60167873],[10.07884574,-2.60130084],[10.07800221,-2.59902012],[10.07800734,-2.59864354],[10.07888782,-2.59779012],[10.07845831,-2.59508443],[10.07565606,-2.59231937],[10.07504261,-2.59750974],[10.07705641,-2.59975767],[10.07542956,-2.60256505],[10.07958364,-2.60487747],[10.08008254,-2.60455334]],[[10.07366824,-2.58673227],[10.07541823,-2.58806026],[10.07568944,-2.58779585],[10.07707965,-2.58431232],[10.08003354,-2.58301032],[10.07861948,-2.58155572],[10.07961535,-2.58098054],[10.0795598,-2.58068955],[10.07917476,-2.58011925],[10.07815266,-2.57977235],[10.07772875,-2.58019257],[10.07690263,-2.58240485],[10.07432485,-2.58127737],[10.07305563,-2.58325946],[10.07233584,-2.58260524],[10.07223725,-2.58408976],[10.07368255,-2.58436334],[10.07374096,-2.58464718],[10.07311916,-2.58721316],[10.07366824,-2.58673227]],[[10.07586765,-2.61016345],[10.07741904,-2.61266506],[10.07771993,-2.61258924],[10.07823205,-2.61065722],[10.07884574,-2.60928321],[10.07818925,-2.60884964],[10.07586765,-2.61016345]],[[10.07483792,-2.57292461],[10.07654512,-2.57122004],[10.07676911,-2.57067895],[10.07626247,-2.56874573],[10.07565224,-2.56836462],[10.07445276,-2.56889307],[10.07517767,-2.57044387],[10.07330787,-2.57396126],[10.07483792,-2.57292461]],[[10.04115117,-2.62037396],[10.04815316,-2.63671875],[10.04248154,-2.66053987],[10.05971205,-2.65213585],[10.06062651,-2.62902904],[10.0414021,-2.62008202],[10.04115117,-2.62037396]],[[10.07329357,-2.57690585],[10.07298982,-2.57653391],[10.07104027,-2.57690537],[10.07309794,-2.57771456],[10.07329357,-2.57690585]],[[10.06859863,-2.59246683],[10.06928635,-2.58951271],[10.06814277,-2.58784175],[10.06694245,-2.58913386],[10.06859863,-2.59246683]],[[10.05975807,-2.61460245],[10.06008875,-2.61570191],[10.06141448,-2.61559105],[10.06452072,-2.61306524],[10.06481361,-2.61288786],[10.06614625,-2.60855734],[10.06053305,-2.61311722],[10.06024134,-2.61320758],[10.06001055,-2.61187994],[10.05816483,-2.61034453],[10.05745172,-2.61042261],[10.05684745,-2.61149144],[10.05696011,-2.61184156],[10.05975807,-2.61460245]],[[10.06229103,-2.57261634],[10.06302595,-2.57159865],[10.06155491,-2.56938982],[10.06008816,-2.57187486],[10.06014335,-2.5722537],[10.0614984,-2.57292485],[10.06229103,-2.57261634]],[[10.05934811,-2.61568677],[10.0565021,-2.6149286],[10.05444002,-2.61713874],[10.05144477,-2.61772084],[10.05140376,-2.61809504],[10.05199826,-2.61915958],[10.05432785,-2.62005734],[10.05906022,-2.61753893],[10.05965066,-2.6160959],[10.05934811,-2.61568677]],[[10.05595601,-2.66396737],[10.05512392,-2.66373456],[10.05446482,-2.66446066],[10.0544523,-2.66639984],[10.05622435,-2.66641426],[10.05633175,-2.66465545],[10.05595601,-2.66396737]],[[10.03335536,-2.62654626],[10.03786862,-2.61944306],[10.03707123,-2.61719191],[10.03335273,-2.61509764],[10.03230572,-2.61495912],[10.03041244,-2.61476505],[10.03014314,-2.61466444],[10.0276705,-2.61716855],[10.02689338,-2.61740804],[10.02535975,-2.6167103],[10.02484214,-2.61786926],[10.02602255,-2.62125313],[10.02507007,-2.62324965],[10.02351224,-2.62384987],[10.02800906,-2.62455428],[10.03019202,-2.62706351],[10.03335536,-2.62654626]],[[10.03640187,-2.62645948],[10.03261364,-2.63110507],[10.0321089,-2.63450086],[10.03236651,-2.63441348],[10.03429437,-2.63038123],[10.03672755,-2.62887847],[10.03748465,-2.62689376],[10.03689933,-2.62585497],[10.03640187,-2.62645948]],[[10.03349435,-2.68007863],[10.03312612,-2.68114901],[10.03396726,-2.68206871],[10.03737712,-2.67816925],[10.03712344,-2.67714894],[10.03383946,-2.67884672],[10.03349435,-2.68007863]],[[10.02427316,-2.66830564],[10.02342665,-2.67088115],[10.02564526,-2.67129946],[10.02599716,-2.66913307],[10.02818584,-2.66995072],[10.0267688,-2.67279565],[10.03221583,-2.67550337],[10.03467536,-2.67338061],[10.03505087,-2.67211735],[10.03494692,-2.67168105],[10.03194296,-2.67065787],[10.03233826,-2.6672703],[10.03205073,-2.66682255],[10.03040194,-2.66634941],[10.02897036,-2.6666404],[10.02427316,-2.66830564]],[[10.03158796,-2.68062794],[10.03132212,-2.68026996],[10.02834415,-2.68238425],[10.02811193,-2.68296695],[10.02842271,-2.68406904],[10.02869892,-2.68425596],[10.03268516,-2.68375301],[10.03279912,-2.68350613],[10.03120196,-2.68205965],[10.03158796,-2.68062794]],[[10.02609468,-2.68456185],[10.02601576,-2.68623912],[10.02746022,-2.68684173],[10.02785373,-2.68664265],[10.02787065,-2.68553543],[10.02742195,-2.6849364],[10.02609468,-2.68456185]],[[10.01648366,-2.71215045],[10.01814735,-2.71254277],[10.01933575,-2.7124269],[10.02074003,-2.71142054],[10.01952875,-2.71011412],[10.01841462,-2.70969105],[10.01726305,-2.7094959],[10.01610041,-2.71002161],[10.01568341,-2.71050763],[10.01601052,-2.71187782],[10.01648366,-2.71215045]],[[10.00267994,0.17340195],[10.00375426,0.17246795],[10.00920761,0.17578125],[10.00973964,0.17592466],[10.01018405,0.17613626],[10.01231074,0.17797101],[10.01154947,0.17958724],[10.01111746,0.17962694],[10.00938034,0.17900586],[10.00558031,0.17578125],[10.00502217,0.17578125],[10.00252295,0.17403531],[10.00267994,0.17340195]],[[10.00694931,-2.6389482],[10.00766361,-2.63671875],[10.00654662,-2.63671875],[10.00570893,-2.63671875],[10.00521255,-2.63540161],[10.00468206,-2.63368976],[10.003021,-2.6325953],[10.00263464,-2.63270855],[10.00203931,-2.63542545],[10.00424278,-2.63577306],[10.00487113,-2.63671875],[10.00515044,-2.63671875],[10.00694931,-2.6389482]],[[9.99912834,-2.63262951],[10.00032651,-2.63225651],[10.00053465,-2.63012564],[9.99853051,-2.63201368],[9.99846137,-2.63249362],[9.99912834,-2.63262951]],[[9.99595284,-2.62776256],[9.99508655,-2.62866104],[9.99623644,-2.62855315],[9.99764097,-2.62826824],[9.99595284,-2.62776256]],[[9.98832166,-2.61178672],[9.99075007,-2.61629832],[9.99210286,-2.61514056],[9.99252963,-2.61169708],[9.99254167,-2.61131465],[9.99108672,-2.60894465],[9.99075866,-2.60888982],[9.98983324,-2.60893142],[9.98961651,-2.60915494],[9.98832166,-2.61178672]],[[9.98989105,-2.59008276],[9.99066293,-2.59012663],[9.99172115,-2.58849561],[9.991593,-2.58791733],[9.99073195,-2.58828497],[9.98995805,-2.58943856],[9.98989105,-2.59008276]],[[9.98888648,-2.62020588],[9.98881435,-2.62154305],[9.98912537,-2.62186003],[9.99064422,-2.62243617],[9.99143565,-2.62166452],[9.99145722,-2.61967862],[9.99130154,-2.61944652],[9.98962533,-2.6192137],[9.98915458,-2.61854506],[9.98895538,-2.61872411],[9.98888648,-2.62020588]],[[9.98913026,-2.62353385],[9.99130034,-2.62582815],[9.99140096,-2.62544024],[9.99088824,-2.62350273],[9.98913026,-2.62353385]],[[9.98685348,-2.62394714],[9.9865787,-2.62387693],[9.98680103,-2.62765873],[9.9871608,-2.62786925],[9.98759842,-2.62771344],[9.98889375,-2.62631035],[9.98881948,-2.62578475],[9.98835838,-2.62432611],[9.98685348,-2.62394714]],[[9.98785531,-2.59429133],[9.98677313,-2.59661627],[9.98767662,-2.59699237],[9.98802662,-2.59690344],[9.98871434,-2.59377217],[9.98785531,-2.59429133]],[[9.98373365,-2.59590864],[9.98328042,-2.59454632],[9.98253393,-2.59540653],[9.98232245,-2.59915495],[9.98253643,-2.59971833],[9.98342335,-2.60029352],[9.98378706,-2.60036385],[9.98699975,-2.59914446],[9.98714507,-2.5989083],[9.98637891,-2.5978713],[9.98395956,-2.59831905],[9.98533094,-2.59602392],[9.98373365,-2.59590864]],[[9.98425937,-2.64981401],[9.98436844,-2.65022314],[9.98580265,-2.6508429],[9.98603857,-2.65053475],[9.98589778,-2.64815736],[9.98519111,-2.64791095],[9.98480475,-2.64838576],[9.98425937,-2.64981401]],[[9.98069155,-2.59702134],[9.97968495,-2.59454584],[9.97818232,-2.59709644],[9.97455621,-2.59771132],[9.97953475,-2.60038126],[9.98074532,-2.59788132],[9.98069155,-2.59702134]],[[9.97796404,-2.55687225],[9.97875035,-2.55741787],[9.97939944,-2.55720663],[9.98017085,-2.55623186],[9.97819901,-2.55549216],[9.97796404,-2.55687225]],[[9.97333527,-2.57448387],[9.97308612,-2.57579875],[9.97328186,-2.57743537],[9.97464645,-2.57824898],[9.97401404,-2.58028412],[9.97292626,-2.57896936],[9.96514642,-2.58092236],[9.96747196,-2.58375716],[9.96739936,-2.58586395],[9.97337484,-2.58361995],[9.97657704,-2.58104873],[9.97709835,-2.57941294],[9.97660685,-2.57679915],[9.97557485,-2.57431674],[9.97449541,-2.57432413],[9.97333527,-2.57448387]],[[9.97227526,-2.53791416],[9.9723376,-2.53836405],[9.97306132,-2.53840888],[9.97418976,-2.53789985],[9.97449541,-2.53556705],[9.97579706,-2.53461611],[9.97491086,-2.53274548],[9.97458124,-2.5325464],[9.97355735,-2.53233302],[9.97306776,-2.53283894],[9.97228801,-2.53493905],[9.97227526,-2.53791416]],[[9.96382904,-2.61478758],[9.96254265,-2.61389971],[9.96096146,-2.60974765],[9.95827711,-2.60956073],[9.9577471,-2.60937047],[9.95088124,-2.60459483],[9.95035243,-2.6059165],[9.95341837,-2.60899675],[9.95130742,-2.61007655],[9.95007527,-2.60806346],[9.94855404,-2.61228812],[9.95542061,-2.61258137],[9.9565953,-2.61318433],[9.95696175,-2.61368322],[9.95646524,-2.61477303],[9.95615244,-2.61492312],[9.95138454,-2.61608052],[9.95411956,-2.61981845],[9.95399594,-2.62126768],[9.95666337,-2.62214196],[9.9591974,-2.62113106],[9.96111643,-2.62301016],[9.96200752,-2.62604415],[9.96838903,-2.62868524],[9.97040236,-2.62835562],[9.97048295,-2.62792838],[9.97160351,-2.62266314],[9.97063506,-2.62330961],[9.96925485,-2.62259114],[9.96935165,-2.62560523],[9.96861243,-2.62579095],[9.96559656,-2.62341344],[9.96336293,-2.62316132],[9.96368015,-2.62037838],[9.96088552,-2.62142527],[9.95979106,-2.618716],[9.96354568,-2.61715317],[9.96382904,-2.61478758]],[[9.96671152,-2.57727373],[9.96193075,-2.57912564],[9.96822035,-2.57807791],[9.96952856,-2.57745266],[9.96977103,-2.57649255],[9.96776748,-2.57623327],[9.96733511,-2.57617152],[9.96671152,-2.57727373]],[[9.95988941,-2.60673118],[9.96039426,-2.60767376],[9.96415555,-2.61173725],[9.96475553,-2.61400032],[9.9666059,-2.61421883],[9.96641684,-2.61001396],[9.96495485,-2.60951567],[9.96436453,-2.60706615],[9.9628334,-2.60702705],[9.96065545,-2.60598874],[9.95988941,-2.60673118]],[[9.96537554,-2.58388615],[9.96264446,-2.58197391],[9.96224904,-2.58219242],[9.96172547,-2.58287478],[9.96208394,-2.58437002],[9.96065271,-2.58554351],[9.96083605,-2.58581865],[9.96438515,-2.58751273],[9.96516907,-2.58746731],[9.96543813,-2.58684635],[9.96556854,-2.58429074],[9.96537554,-2.58388615]],[[9.93333685,0.19136524],[9.94500542,0.18405461],[9.94759917,0.18131292],[9.95005584,0.17578125],[9.95061386,0.17578125],[9.95197701,0.17412841],[9.95500195,0.17332184],[9.95563293,0.17345214],[9.95982134,0.17578125],[9.96065843,0.17578125],[9.96192265,0.17671645],[9.96196938,0.17701316],[9.96118605,0.18117011],[9.95185685,0.18884015],[9.92647135,0.19691586],[9.92414868,0.19622684],[9.92335582,0.19538558],[9.9236356,0.19467247],[9.92508376,0.19363844],[9.93333685,0.19136524]],[[9.96043181,-2.58271801],[9.96031201,-2.58235705],[9.95903325,-2.58292258],[9.95811296,-2.58606756],[9.95972705,-2.58556294],[9.95999718,-2.58495927],[9.96043181,-2.58271801]],[[9.95449615,-2.60429621],[9.95804656,-2.60756362],[9.95904624,-2.60760653],[9.95943761,-2.6066817],[9.95766377,-2.60341477],[9.95635426,-2.60334218],[9.95474625,-2.60237014],[9.95449615,-2.60429621]],[[9.95753205,-2.53842413],[9.95395005,-2.54008615],[9.95386124,-2.54113126],[9.95602465,-2.54121101],[9.95733213,-2.53974974],[9.95859444,-2.54096818],[9.95903122,-2.53980446],[9.95874226,-2.53957856],[9.95793974,-2.53871763],[9.95753205,-2.53842413]],[[9.93631601,-2.52257085],[9.93194401,-2.53724897],[9.94144785,-2.53061247],[9.95577037,-2.53372574],[9.95249045,-2.53063416],[9.94101727,-2.52763665],[9.93631601,-2.52257085]],[[9.95460558,-2.5529772],[9.95303643,-2.55432475],[9.95571804,-2.55688262],[9.95598686,-2.55678844],[9.95676494,-2.55376661],[9.95460558,-2.5529772]],[[9.94620097,-2.5273025],[9.94883621,-2.52802873],[9.94944322,-2.52809215],[9.95109665,-2.52676916],[9.95447421,-2.52853513],[9.95654464,-2.52798605],[9.95556056,-2.52664363],[9.94727886,-2.52316165],[9.94696856,-2.52281845],[9.94490266,-2.52553487],[9.94489706,-2.52581525],[9.94620097,-2.5273025]],[[9.94989204,-2.54952323],[9.94900894,-2.55020845],[9.94902611,-2.55049825],[9.95082605,-2.55167246],[9.95162141,-2.55149841],[9.95337558,-2.55042362],[9.9535259,-2.55006826],[9.95296287,-2.54918158],[9.9513036,-2.54883397],[9.94989204,-2.54952323]],[[9.95281756,-2.54092884],[9.95261312,-2.54046035],[9.95016861,-2.54151714],[9.95015955,-2.54189575],[9.95108402,-2.54335344],[9.95152748,-2.54349065],[9.95286167,-2.54137397],[9.95281756,-2.54092884]],[[9.94620121,-2.56943905],[9.94713342,-2.57211626],[9.94811821,-2.57212675],[9.94762278,-2.57022607],[9.94620121,-2.56943905]],[[9.94618893,-2.54297018],[9.94471586,-2.54230154],[9.94374335,-2.54240084],[9.94446003,-2.54342794],[9.9456526,-2.54364741],[9.94623494,-2.54326773],[9.94618893,-2.54297018]],[[9.94054055,-2.57099271],[9.94003797,-2.57006562],[9.93838155,-2.57059264],[9.93849278,-2.57090235],[9.94054055,-2.57099271]],[[9.94042957,-2.57960355],[9.94036686,-2.57656884],[9.94007838,-2.57613742],[9.93876696,-2.57595468],[9.93513763,-2.5748744],[9.9367218,-2.57779503],[9.93548846,-2.57883286],[9.94042957,-2.57960355]],[[9.93464076,-2.56526244],[9.93378246,-2.56692827],[9.93076778,-2.56802535],[9.92880535,-2.56669343],[9.92574632,-2.57070816],[9.92464066,-2.56653523],[9.92422616,-2.5665431],[9.92061782,-2.56868637],[9.92066801,-2.57151985],[9.92097211,-2.57210183],[9.92373228,-2.57292616],[9.92708421,-2.57767177],[9.92884982,-2.57716274],[9.92848527,-2.57448006],[9.92902935,-2.57384181],[9.93033755,-2.57351053],[9.93293452,-2.57692945],[9.9333688,-2.57682645],[9.9343338,-2.57526183],[9.93443728,-2.57472432],[9.93399036,-2.57259822],[9.93549776,-2.57073414],[9.93295026,-2.57223117],[9.93204391,-2.57058024],[9.93299365,-2.56867707],[9.93459713,-2.56795871],[9.93601394,-2.56690466],[9.93615806,-2.56661415],[9.93577862,-2.56575036],[9.93464076,-2.56526244]],[[9.90762508,-2.55202842],[9.91476381,-2.56101024],[9.92594004,-2.56471956],[9.92221475,-2.55394316],[9.90762508,-2.55202842]],[[9.92466021,-2.55083585],[9.92624664,-2.55154121],[9.92623866,-2.55025315],[9.92561591,-2.54986346],[9.92473435,-2.54957926],[9.92434144,-2.54996383],[9.92466021,-2.55083585]],[[9.92183244,-2.52506494],[9.91992187,-2.52594483],[9.9201982,-2.53009582],[9.91553926,-2.5294553],[9.91743398,-2.53086197],[9.91501582,-2.53518105],[9.91506982,-2.53556037],[9.91562986,-2.53557444],[9.91693652,-2.53530896],[9.91986811,-2.5315814],[9.92294455,-2.53160095],[9.92330575,-2.53134596],[9.92527592,-2.52912951],[9.92546451,-2.52781606],[9.92315221,-2.52568233],[9.92183244,-2.52506494]],[[9.91976821,-2.54960775],[9.92095625,-2.54950476],[9.92138314,-2.54903805],[9.92136741,-2.54861987],[9.92040277,-2.54796267],[9.91912246,-2.54874325],[9.91881585,-2.54934382],[9.91976821,-2.54960775]],[[9.89495814,0.16804445],[9.89735174,0.16804075],[9.90217841,0.16939342],[9.90249646,0.16956782],[9.90764511,0.17578125],[9.90820312,0.17578125],[9.91686392,0.18288457],[9.91746235,0.18434978],[9.91718924,0.18643045],[9.91673565,0.18679821],[9.91174746,0.18769205],[9.90757632,0.18680334],[9.9058845,0.18551302],[9.90485704,0.18448055],[9.89815843,0.17578125],[9.89760041,0.17578125],[9.89370883,0.17196274],[9.89326346,0.17110825],[9.89343345,0.16899896],[9.89360881,0.16882622],[9.89495814,0.16804445]],[[9.90965211,-2.51435876],[9.91196752,-2.51074612],[9.91028452,-2.50887382],[9.91316688,-2.50600636],[9.91141605,-2.50466216],[9.9085623,-2.50455594],[9.90816247,-2.50445247],[9.90704286,-2.50534344],[9.90637016,-2.50934505],[9.90888441,-2.51164436],[9.90802002,-2.51366627],[9.90825522,-2.51463246],[9.90869033,-2.51477385],[9.90965211,-2.51435876]],[[9.90523887,-2.52726483],[9.90726626,-2.52939308],[9.90778172,-2.52930927],[9.90928137,-2.52660084],[9.90850615,-2.52517366],[9.90523887,-2.52726483]],[[9.89770234,-2.53333676],[9.89804184,-2.5344125],[9.89838886,-2.53474486],[9.89938354,-2.53542233],[9.89978063,-2.53493595],[9.90298545,-2.53288496],[9.90318155,-2.53266132],[9.90249491,-2.53099775],[9.90059221,-2.52979004],[9.89936864,-2.53057456],[9.89770234,-2.53333676]],[[9.89670455,-2.54900515],[9.89872277,-2.54689276],[9.89643645,-2.54412925],[9.89526916,-2.54474795],[9.89525771,-2.54510164],[9.89599383,-2.54930174],[9.89670455,-2.54900515]],[[9.88429225,-2.49457693],[9.88708615,-2.49464905],[9.88805068,-2.49277401],[9.89313662,-2.49006212],[9.89465415,-2.48661363],[9.89482832,-2.48482966],[9.89167035,-2.48406661],[9.88958383,-2.48702335],[9.88920176,-2.48710072],[9.88690305,-2.48605704],[9.88429225,-2.49457693]],[[9.89234257,-2.427266],[9.89187396,-2.42720616],[9.88935935,-2.42920291],[9.89055026,-2.43104601],[9.89164555,-2.43159115],[9.89206564,-2.43138862],[9.89223242,-2.43074226],[9.89094925,-2.43016255],[9.89259195,-2.42812288],[9.89234257,-2.427266]],[[9.89066184,-2.42567396],[9.88797617,-2.42385757],[9.88686764,-2.42589915],[9.88805711,-2.42686105],[9.89066184,-2.42567396]],[[9.88972425,-2.44206023],[9.88669395,-2.43844974],[9.88369751,-2.43881381],[9.88358355,-2.44107687],[9.88475311,-2.44261181],[9.88305414,-2.44792962],[9.88144135,-2.44864237],[9.88144505,-2.44894123],[9.88281977,-2.44972253],[9.88321805,-2.44944072],[9.88492763,-2.44853151],[9.88773441,-2.44731975],[9.88972425,-2.44206023]],[[9.88674235,-2.57988894],[9.88744128,-2.58016407],[9.888677,-2.57952476],[9.88862717,-2.57915998],[9.88686657,-2.57785451],[9.88632453,-2.57961226],[9.88674235,-2.57988894]],[[9.88632226,-2.53414345],[9.88690162,-2.53417206],[9.88755655,-2.53200972],[9.88691115,-2.53156042],[9.88596976,-2.53304756],[9.88632226,-2.53414345]],[[9.88691938,-2.50877488],[9.88674903,-2.51235676],[9.88209605,-2.51767051],[9.88231444,-2.51861215],[9.88447595,-2.51894963],[9.88403833,-2.52033842],[9.88416743,-2.52082253],[9.88500106,-2.52279568],[9.88538337,-2.52310276],[9.88600504,-2.52260506],[9.88672256,-2.51791418],[9.88436663,-2.51796234],[9.88405883,-2.51767731],[9.88389635,-2.51674783],[9.88408232,-2.51613665],[9.88513804,-2.51554954],[9.88716304,-2.51297855],[9.88691938,-2.50877488]],[[9.88685524,-2.53030276],[9.88701224,-2.52667916],[9.88595498,-2.52826655],[9.88654614,-2.53110397],[9.88680565,-2.5307281],[9.88685524,-2.53030276]],[[9.87328374,-2.5500344],[9.87729287,-2.54181576],[9.87535036,-2.54062545],[9.87458873,-2.53658247],[9.87225223,-2.53701973],[9.87199354,-2.5390259],[9.86999547,-2.53930068],[9.86989546,-2.53895795],[9.86602855,-2.53368866],[9.86430585,-2.53558242],[9.86399674,-2.53782153],[9.86660016,-2.5398792],[9.86667192,-2.54169881],[9.86912167,-2.54201722],[9.87054634,-2.54611278],[9.86766136,-2.54590797],[9.8668617,-2.54843426],[9.87014484,-2.54836094],[9.87060964,-2.55164945],[9.87124693,-2.55199194],[9.87178171,-2.55205405],[9.87328374,-2.5500344]],[[9.87237465,-2.46986997],[9.87170506,-2.46981275],[9.87059987,-2.47028196],[9.87046874,-2.47052622],[9.86980188,-2.47351563],[9.86990011,-2.47416306],[9.87054002,-2.47625566],[9.87246335,-2.47697318],[9.8728801,-2.47677767],[9.87331224,-2.47621286],[9.8733958,-2.47167182],[9.8733474,-2.47096395],[9.87237465,-2.46986997]],[[9.87278664,-2.52536297],[9.87215126,-2.52329993],[9.87095892,-2.52312064],[9.86999941,-2.52388871],[9.87013042,-2.52569616],[9.87063801,-2.52633953],[9.87190342,-2.52636862],[9.87260854,-2.52623761],[9.87278664,-2.52536297]],[[9.85851336,-2.50037205],[9.85566735,-2.50143218],[9.85415184,-2.50357544],[9.85422981,-2.50496972],[9.85647094,-2.50513792],[9.85659373,-2.50611186],[9.85371864,-2.50612247],[9.85230112,-2.50470161],[9.85034454,-2.50601006],[9.85205495,-2.50795364],[9.85046875,-2.51002455],[9.85084045,-2.51354325],[9.85107923,-2.51516688],[9.85293496,-2.51665652],[9.85392344,-2.52019024],[9.85442567,-2.52055883],[9.86100805,-2.52129078],[9.86237633,-2.52065432],[9.86292326,-2.51881695],[9.86450171,-2.51883316],[9.86656427,-2.52120233],[9.86688352,-2.52096605],[9.86745465,-2.51965976],[9.86468232,-2.51649892],[9.86282015,-2.51621246],[9.86340678,-2.51512206],[9.85620523,-2.51472056],[9.85391664,-2.51370955],[9.85380244,-2.51330304],[9.85607648,-2.51136422],[9.86354196,-2.51155996],[9.862167,-2.5088253],[9.85972488,-2.50746441],[9.85998034,-2.50660396],[9.86158156,-2.50708067],[9.86133063,-2.50591135],[9.85918248,-2.50516558],[9.86433113,-2.50432181],[9.85816705,-2.4988476],[9.85851336,-2.50037205]],[[9.85630608,-2.4660238],[9.85684204,-2.46380925],[9.85659504,-2.4609375],[9.85633445,-2.45971906],[9.85696793,-2.45893467],[9.85824275,-2.45917046],[9.85910821,-2.4609375],[9.85938728,-2.4609375],[9.86230361,-2.46393585],[9.86553073,-2.4609375],[9.86490953,-2.45867264],[9.86263287,-2.45705581],[9.86321354,-2.44941223],[9.86173356,-2.44881356],[9.86020982,-2.44996202],[9.85968196,-2.44729722],[9.85938883,-2.44727981],[9.85677791,-2.44903254],[9.85605955,-2.44823563],[9.85384882,-2.44503176],[9.85259807,-2.44463921],[9.85167134,-2.44464004],[9.85030925,-2.44541037],[9.850878,-2.44867814],[9.84845912,-2.44843757],[9.84800875,-2.44879496],[9.84801435,-2.44945765],[9.85059237,-2.45225632],[9.85513985,-2.45216405],[9.85573661,-2.45261526],[9.85566747,-2.45345712],[9.85137284,-2.45345116],[9.85056424,-2.4544301],[9.85268557,-2.4609375],[9.85301244,-2.46481466],[9.85318875,-2.46526945],[9.85479951,-2.46676075],[9.85537827,-2.46676576],[9.85630608,-2.4660238]],[[9.85327578,-2.49041557],[9.85050654,-2.49370325],[9.85206187,-2.49594545],[9.85225165,-2.49877596],[9.85370183,-2.50026464],[9.85469675,-2.50079584],[9.85517216,-2.50068593],[9.85611916,-2.50003696],[9.85636234,-2.49952602],[9.85702383,-2.49733353],[9.86186445,-2.49816966],[9.86216354,-2.49764955],[9.86226904,-2.4951539],[9.86239374,-2.49403834],[9.85999501,-2.49026442],[9.85692692,-2.48974895],[9.85355842,-2.49026024],[9.85327578,-2.49041557]],[[9.82748175,-2.49620867],[9.82563961,-2.50276136],[9.82725406,-2.50234365],[9.83226526,-2.49696887],[9.84106755,-2.49524915],[9.84123433,-2.49503171],[9.84116638,-2.49261415],[9.83718777,-2.49302447],[9.83676887,-2.49260604],[9.83674288,-2.4883635],[9.83466101,-2.48780978],[9.83246815,-2.48641145],[9.82998812,-2.48983693],[9.82800031,-2.49064553],[9.82702494,-2.49260592],[9.82748175,-2.49620867]],[[9.83053935,-2.47642815],[9.83004868,-2.48268545],[9.83327735,-2.48214388],[9.83388233,-2.48153353],[9.83380616,-2.48265004],[9.83260941,-2.48507655],[9.83412278,-2.48598182],[9.83444214,-2.48593271],[9.83589613,-2.4841789],[9.83685243,-2.48104513],[9.83804941,-2.47421265],[9.83805871,-2.4738847],[9.83644831,-2.47259152],[9.83606911,-2.47243786],[9.83581173,-2.47251725],[9.83385575,-2.47486782],[9.83053935,-2.47642815]],[[9.83428526,0.14786267],[9.83449936,0.14738727],[9.83521044,0.14749861],[9.83645308,0.14824545],[9.83551967,0.14967883],[9.83428526,0.14786267]],[[9.80748391,-2.49963534],[9.81053185,-2.49373925],[9.81029451,-2.49359214],[9.80675066,-2.49330354],[9.80529237,-2.49457777],[9.80499613,-2.49610198],[9.80509865,-2.49680853],[9.80987334,-2.50723875],[9.81170845,-2.504094],[9.81190205,-2.50032306],[9.80751741,-2.49992084],[9.80748391,-2.49963534]],[[9.80489504,-2.49383676],[9.80620813,-2.49283695],[9.80619442,-2.49145091],[9.80356896,-2.48902464],[9.80256724,-2.48880744],[9.80130982,-2.49014545],[9.80119324,-2.49123538],[9.80214596,-2.49166882],[9.80394387,-2.49404144],[9.80489504,-2.49383676]],[[9.79151297,-2.51608253],[9.79093683,-2.51586103],[9.79001904,-2.51671398],[9.78971982,-2.51680851],[9.78937435,-2.51693451],[9.78895426,-2.51706231],[9.78849006,-2.51723945],[9.78796983,-2.51750624],[9.78752792,-2.51789856],[9.78736985,-2.51822901],[9.78771341,-2.51836705],[9.78800392,-2.51823187],[9.78833151,-2.51808655],[9.78874815,-2.51794052],[9.78925526,-2.51780927],[9.78971457,-2.51763046],[9.79018235,-2.51735938],[9.79071713,-2.51697123],[9.79116857,-2.51663744],[9.79151297,-2.51608253]],[[9.78546631,0.99427164],[9.78607297,0.99422908],[9.78874755,0.99754417],[9.78863335,0.9987936],[9.78697205,0.99967504],[9.78632557,0.99975753],[9.78574407,0.99919784],[9.78506684,0.99712884],[9.78495061,0.99664843],[9.78546631,0.99427164]],[[9.76741314,-2.52521682],[9.76911771,-2.52531564],[9.77078748,-2.52440965],[9.76861072,-2.52395368],[9.76700747,-2.52491975],[9.76741314,-2.52521682]],[[9.75244606,-2.51709867],[9.75375605,-2.51765847],[9.75400686,-2.51747584],[9.75404072,-2.51577294],[9.7539258,-2.51549435],[9.75092113,-2.50985026],[9.7506541,-2.50948966],[9.74991202,-2.51039362],[9.75023127,-2.51330805],[9.75244606,-2.51709867]],[[9.72775114,-2.45502281],[9.72839451,-2.45230532],[9.72714436,-2.45303607],[9.72696543,-2.45352972],[9.72719705,-2.45524216],[9.72775114,-2.45502281]],[[9.68705034,-0.92365015],[9.68763244,-0.92377365],[9.69730783,-0.91772437],[9.70328546,-0.91173685],[9.70533597,-0.90698552],[9.70156705,-0.90816104],[9.69581628,-0.91359711],[9.69288385,-0.91474533],[9.68652463,-0.92251313],[9.68705034,-0.92365015]],[[9.6648916,-0.92388535],[9.6665436,-0.92313552],[9.66747046,-0.92228615],[9.66591787,-0.92180741],[9.65604556,-0.92452025],[9.66019392,-0.92514098],[9.6648916,-0.92388535]],[[9.58528531,-0.95541584],[9.58486462,-0.95532382],[9.58296442,-0.95661461],[9.58205175,-0.95782661],[9.58181012,-0.95890212],[9.58211422,-0.96016276],[9.58292782,-0.96009505],[9.58526874,-0.95886135],[9.58703101,-0.9570471],[9.58718014,-0.95601213],[9.58528531,-0.95541584]],[[9.58178842,-0.96550155],[9.58188427,-0.9658215],[9.58459115,-0.96548605],[9.58605075,-0.96442056],[9.58607352,-0.96408164],[9.58378768,-0.96380317],[9.58230615,-0.96434295],[9.58178842,-0.96550155]],[[9.57870746,-0.96759212],[9.58138967,-0.96455145],[9.58172452,-0.96359646],[9.58149064,-0.96344495],[9.57841253,-0.96292317],[9.57352316,-0.96505094],[9.56817627,-0.97030962],[9.56929576,-0.9702363],[9.57870746,-0.96759212]],[[9.57237625,0.51040006],[9.57301831,0.51039314],[9.57642126,0.51267374],[9.57753742,0.51550627],[9.57770324,0.51994717],[9.57657862,0.52245855],[9.57756686,0.52734375],[9.57806516,0.53232622],[9.57783806,0.5360682],[9.57657528,0.53868544],[9.57551587,0.54035127],[9.57408106,0.54115736],[9.56539154,0.53816283],[9.56491911,0.53792822],[9.56223643,0.53262925],[9.56222093,0.52734375],[9.56225038,0.52694607],[9.56589973,0.51770258],[9.56715846,0.51565313],[9.57156205,0.51056755],[9.57237625,0.51040006]],[[9.54149711,0.26910186],[9.54096317,0.25921416],[9.54446053,0.25936425],[9.54749584,0.25726926],[9.54992843,0.25872016],[9.55148435,0.26171303],[9.55176961,0.26176786],[9.55864155,0.26227427],[9.55896866,0.26265013],[9.56079817,0.26576626],[9.56084192,0.2711395],[9.56055355,0.27158785],[9.54973733,0.2769978],[9.54485285,0.27853107],[9.54227126,0.27845967],[9.53958428,0.2758162],[9.54095685,0.27360666],[9.54149711,0.26910186]],[[9.54751635,-1.63852322],[9.54806626,-1.63905275],[9.55068874,-1.63904452],[9.54898524,-1.63829005],[9.54846025,-1.63809144],[9.54751635,-1.63852322]],[[9.53807187,0.59046531],[9.53717816,0.5882827],[9.53814065,0.58684516],[9.53820634,0.58247101],[9.54133475,0.58148491],[9.54281092,0.58277392],[9.54483914,0.58947027],[9.54488862,0.59834993],[9.54445755,0.59929824],[9.54367113,0.59963512],[9.54250968,0.59886944],[9.53807187,0.59046531]],[[9.53951836,-2.06540585],[9.54035175,-2.06542206],[9.54186332,-2.06485891],[9.54241121,-2.06295836],[9.54185343,-2.06178355],[9.54028213,-2.06134891],[9.53760004,-2.0627979],[9.53751993,-2.06320643],[9.53951836,-2.06540585]],[[9.53438985,0.56125093],[9.53499413,0.56114948],[9.53681052,0.56289792],[9.53417492,0.56218004],[9.53438985,0.56125093]],[[9.50160241,-1.00214624],[9.5072937,-1.00451505],[9.51018667,-1.00487125],[9.51112676,-1.00432932],[9.51493526,-1.00160086],[9.51527512,-1.00125611],[9.52022874,-0.99441958],[9.53356755,-0.98492432],[9.53376842,-0.98461294],[9.5335052,-0.98410416],[9.53090191,-0.98303092],[9.52639556,-0.98374867],[9.51431847,-0.98900735],[9.51108491,-0.99135566],[9.51057851,-0.99186397],[9.50160241,-1.00214624]],[[9.51991856,-0.99563634],[9.51677573,-1.00118554],[9.51752055,-1.00113463],[9.52814281,-0.99069095],[9.5243535,-0.99203706],[9.52018964,-0.99537241],[9.51991856,-0.99563634]],[[9.51606822,-1.17478502],[9.51734686,-1.17491305],[9.51776123,-1.17478538],[9.51974833,-1.17317235],[9.51650608,-1.17239702],[9.51549304,-1.17305434],[9.51536834,-1.17343438],[9.51567101,-1.17452598],[9.51606822,-1.17478502]],[[9.51690495,0.29738474],[9.51658082,0.29746234],[9.51395857,0.29341042],[9.51416635,0.29273713],[9.51490855,0.29284561],[9.51771152,0.29585791],[9.51761997,0.29708707],[9.51690495,0.29738474]],[[9.51410592,-1.18312645],[9.51453388,-1.18326366],[9.51670074,-1.18256581],[9.51641798,-1.18124592],[9.51385641,-1.18117535],[9.51279974,-1.1813637],[9.51410592,-1.18312645]],[[9.51423597,0.29479456],[9.51400673,0.29740512],[9.51312852,0.29702413],[9.51291251,0.29547727],[9.51330054,0.29349661],[9.51361954,0.29385626],[9.51423597,0.29479456]],[[9.51018405,0.21512282],[9.50794566,0.21106923],[9.50792384,0.21060097],[9.51094675,0.20744932],[9.51160824,0.20746183],[9.51197386,0.20780945],[9.51364374,0.21239173],[9.51379573,0.21414745],[9.51268744,0.21510375],[9.51018405,0.21512282]],[[9.51136637,-0.98622096],[9.5096817,-0.98583913],[9.50742376,-0.98610878],[9.50668645,-0.98630822],[9.50490773,-0.98776805],[9.49662435,-0.99706328],[9.49585521,-0.99844408],[9.49681234,-0.99856424],[9.49984145,-0.99772787],[9.50221121,-0.99615645],[9.50616431,-0.99260986],[9.50945938,-0.98946214],[9.51084948,-0.98781455],[9.51136637,-0.98622096]],[[9.49880016,-1.14024162],[9.4958477,-1.14180684],[9.49591875,-1.14227056],[9.49806404,-1.14790654],[9.5016067,-1.14860964],[9.50293636,-1.15122092],[9.50346816,-1.15123224],[9.50411487,-1.15053236],[9.50438237,-1.14829326],[9.50561738,-1.14686894],[9.50488555,-1.14291024],[9.50536156,-1.14245546],[9.50679862,-1.14258528],[9.50741768,-1.14348376],[9.50722265,-1.14392853],[9.50558555,-1.14400983],[9.50560665,-1.14472473],[9.50596225,-1.14498031],[9.50710595,-1.14557517],[9.50740445,-1.14557254],[9.50875855,-1.14507222],[9.50903952,-1.14467466],[9.50914144,-1.14376223],[9.50816941,-1.13959372],[9.50743055,-1.13892055],[9.50594771,-1.14146936],[9.50480521,-1.13980174],[9.50190008,-1.14090097],[9.50180495,-1.14043164],[9.50210035,-1.13999617],[9.50007963,-1.13824725],[9.49880016,-1.14024162]],[[9.50911665,-1.14556074],[9.50675821,-1.14648306],[9.50727534,-1.14769304],[9.50891173,-1.14801121],[9.50911665,-1.14556074]],[[9.50537002,-1.00504255],[9.50029767,-1.00303078],[9.49638307,-1.00634515],[9.50406647,-1.00716758],[9.50460386,-1.00690496],[9.50547326,-1.00617194],[9.50537002,-1.00504255]],[[9.49685931,-2.02414501],[9.49876511,-2.02588105],[9.49906623,-2.02583301],[9.50280273,-2.02202427],[9.50260067,-2.02036285],[9.50182557,-2.02151227],[9.50059795,-2.02023292],[9.49914372,-2.01891017],[9.49851513,-2.02118587],[9.4967612,-2.02128494],[9.49671125,-2.02159846],[9.49744737,-2.02250361],[9.49685931,-2.02414501]],[[9.49531257,0.10334766],[9.49863124,0.09471691],[9.49878514,0.09438765],[9.50052226,0.09447455],[9.50274861,0.10003483],[9.50270283,0.10086906],[9.50152481,0.10626006],[9.50128901,0.10668588],[9.49870241,0.10775685],[9.49647486,0.10649276],[9.49531293,0.10398233],[9.49531257,0.10334766]],[[9.49365687,-1.14349532],[9.49437165,-1.14355504],[9.49492681,-1.14296627],[9.49467742,-1.14181137],[9.49429023,-1.14170682],[9.4933542,-1.14213216],[9.4931401,-1.14251995],[9.49365687,-1.14349532]],[[9.4921875,-1.14564717],[9.48880148,-1.14299452],[9.48741448,-1.14414084],[9.48804414,-1.14602637],[9.48867238,-1.14673793],[9.4921875,-1.14871645],[9.4921875,-1.14815843],[9.49296355,-1.14746201],[9.4921875,-1.14620531],[9.4921875,-1.14564717]],[[9.48065352,-1.13854504],[9.48337126,-1.14056575],[9.48351192,-1.14031243],[9.48280561,-1.13844442],[9.48032606,-1.13751924],[9.48011112,-1.1377629],[9.48065352,-1.13854504]],[[9.44517267,-1.59807551],[9.44618785,-1.58931065],[9.44759941,-1.58774686],[9.45609534,-1.58793914],[9.46016145,-1.59010005],[9.46148348,-1.59205735],[9.47617042,-1.59651065],[9.48140407,-1.59372902],[9.48208785,-1.59228182],[9.48233724,-1.59116101],[9.48166263,-1.58550215],[9.48147714,-1.58518791],[9.47808254,-1.58331537],[9.47712052,-1.58203125],[9.47459745,-1.57773852],[9.46782684,-1.57210731],[9.46750021,-1.57192183],[9.45016313,-1.56878686],[9.44630241,-1.56760502],[9.44076872,-1.56884146],[9.43521702,-1.56867492],[9.42262483,-1.57564223],[9.42039013,-1.57858276],[9.42075884,-1.58203125],[9.42103791,-1.58203125],[9.42600107,-1.58967352],[9.42821646,-1.60223007],[9.43182313,-1.60821712],[9.43512237,-1.61112833],[9.43950915,-1.60940266],[9.44193482,-1.60583436],[9.44517267,-1.59807551]],[[9.48003542,-1.11084342],[9.47976816,-1.1107409],[9.47937262,-1.11164701],[9.48059356,-1.11304545],[9.48088765,-1.11295331],[9.4815768,-1.11252964],[9.48185456,-1.11150384],[9.48003542,-1.11084342]],[[9.46261632,-1.92695534],[9.46472645,-1.93158305],[9.46649742,-1.93359375],[9.46997488,-1.93743455],[9.47289705,-1.93629468],[9.47431612,-1.93359375],[9.47624338,-1.93038023],[9.47642553,-1.92675936],[9.47636473,-1.92642605],[9.47416305,-1.92337155],[9.47159016,-1.92218637],[9.47161925,-1.91810882],[9.46850371,-1.91896975],[9.46750724,-1.91876543],[9.46628976,-1.91335011],[9.46610785,-1.91301894],[9.46523404,-1.91251194],[9.46496105,-1.91255474],[9.46376824,-1.91542911],[9.46478176,-1.92395186],[9.46261632,-1.92695534]],[[9.32486057,-1.06375325],[9.25620615,-1.09523761],[9.37690771,-1.08741832],[9.42112505,-1.04074705],[9.4688555,-1.00774705],[9.36039972,-1.03418922],[9.32486057,-1.06375325]],[[9.47315908,-2.00601602],[9.47198486,-2.00554156],[9.47102284,-2.00711846],[9.47303367,-2.00791121],[9.47338724,-2.00741065],[9.47315908,-2.00601602]],[[9.46576905,-1.13745368],[9.46773005,-1.13860965],[9.46825731,-1.13852143],[9.46957195,-1.13815296],[9.46993995,-1.13533473],[9.46871531,-1.13327456],[9.46745694,-1.13304901],[9.46558952,-1.13451648],[9.46518505,-1.13643301],[9.46576905,-1.13745368]],[[9.45422423,-1.02224183],[9.45880794,-1.02307045],[9.45912504,-1.02295971],[9.46183217,-1.02155435],[9.45996201,-1.02086878],[9.45705676,-1.02154934],[9.45422423,-1.02224183]],[[9.44483185,-1.94199395],[9.44444394,-1.94238031],[9.44431007,-1.94400024],[9.44561243,-1.94546974],[9.44873548,-1.94282317],[9.44649684,-1.94295323],[9.44483185,-1.94199395]],[[9.39759755,-1.08542371],[9.39819562,-1.08560264],[9.40437615,-1.08433783],[9.40785694,-1.08318901],[9.41037357,-1.08180332],[9.41228914,-1.08056724],[9.41400254,-1.07885206],[9.41692865,-1.07412541],[9.41699624,-1.07339907],[9.41615498,-1.07366073],[9.41275406,-1.07697928],[9.40107965,-1.08179021],[9.39776266,-1.08486915],[9.39759755,-1.08542371]],[[9.40826118,0.21107864],[9.40588653,0.21225047],[9.40472102,0.21155298],[9.40364826,0.21109855],[9.40087116,0.21146595],[9.39821303,0.20723772],[9.39807475,0.20682216],[9.39798057,0.20351064],[9.39804757,0.2031368],[9.39983594,0.19829535],[9.40497828,0.19444776],[9.41232836,0.20412791],[9.41169381,0.20912445],[9.41142595,0.20960867],[9.40826118,0.21107864]],[[9.40929556,-0.99994147],[9.40899825,-0.99888217],[9.40524125,-0.99964535],[9.40609646,-1.00077033],[9.40844774,-1.00068653],[9.40929556,-0.99994147]],[[9.40372336,0.19440305],[9.39754951,0.20037353],[9.39683986,0.1977458],[9.39694858,0.19402575],[9.397632,0.19209242],[9.39892626,0.19001353],[9.40021574,0.18913984],[9.40201116,0.18812144],[9.40284133,0.18821847],[9.40342486,0.18859124],[9.40371323,0.18931854],[9.40382683,0.19402742],[9.40372336,0.19440305]],[[9.39711905,-1.10527635],[9.39764571,-1.10641801],[9.39843106,-1.10567081],[9.40106034,-1.10675132],[9.40361416,-1.10502112],[9.40191436,-1.10429597],[9.39945996,-1.10486126],[9.39924252,-1.10455537],[9.39744985,-1.10350823],[9.39711905,-1.10527635]],[[9.39409816,-0.9997884],[9.39665365,-0.99847412],[9.39667296,-0.99815237],[9.39400792,-0.99755561],[9.39297032,-0.99748957],[9.39207315,-0.99790394],[9.39097655,-0.99880207],[9.39098263,-0.99940658],[9.3921411,-0.99969435],[9.39409816,-0.9997884]],[[9.37733912,-1.91322196],[9.37875497,-1.91372263],[9.37919235,-1.91367471],[9.38072813,-1.91192055],[9.38102055,-1.91143417],[9.38295758,-1.90592706],[9.38260317,-1.90499795],[9.38009286,-1.90492117],[9.37822747,-1.90472114],[9.37891066,-1.90820157],[9.37547195,-1.91091478],[9.37733912,-1.91322196]],[[9.38038611,0.81011975],[9.38080215,0.81042802],[9.38043935,0.81042737],[9.37742746,0.81042194],[9.37877595,0.80920458],[9.37912655,0.80928445],[9.38034313,0.81009125],[9.38038611,0.81011975]],[[9.36628747,-1.08602881],[9.36512411,-1.08592546],[9.35353923,-1.08878553],[9.34848464,-1.09216714],[9.35705638,-1.09242606],[9.37054277,-1.09562075],[9.37318385,-1.09455824],[9.37614322,-1.09054375],[9.37695932,-1.08970761],[9.37374866,-1.08728588],[9.37329996,-1.08710217],[9.36628747,-1.08602881]],[[9.37331867,-1.88600874],[9.37320054,-1.88556385],[9.37202764,-1.88624036],[9.37078452,-1.88910782],[9.37088311,-1.88939881],[9.37431037,-1.89108193],[9.37557161,-1.89026403],[9.37510455,-1.88973248],[9.37342346,-1.88910842],[9.37331867,-1.88600874]],[[9.36483383,-1.64379776],[9.36193395,-1.64485824],[9.36146832,-1.6449635],[9.35782933,-1.64473081],[9.35309136,-1.64805937],[9.33555985,-1.64765716],[9.33329928,-1.65005493],[9.32844424,-1.65139461],[9.32826793,-1.65894711],[9.33474445,-1.66016996],[9.34305251,-1.65627944],[9.34889996,-1.65493786],[9.35284102,-1.65342832],[9.35956037,-1.64902484],[9.36644542,-1.64672506],[9.36905444,-1.64460075],[9.36911631,-1.64424264],[9.36863411,-1.64376366],[9.36649013,-1.64232934],[9.36483383,-1.64379776]],[[9.36719251,-1.91159654],[9.36573875,-1.91132557],[9.36476636,-1.91152644],[9.36530125,-1.91255796],[9.36575937,-1.91277528],[9.36738086,-1.91306305],[9.36751854,-1.91279948],[9.36758792,-1.91190255],[9.36719251,-1.91159654]],[[9.35455465,-1.98362672],[9.35736012,-1.98674786],[9.35781968,-1.98655498],[9.35729074,-1.98524594],[9.35385716,-1.98126495],[9.35410762,-1.98296165],[9.35455465,-1.98362672]],[[9.35216916,-1.02962935],[9.35179842,-1.02951825],[9.35160744,-1.0297966],[9.35152733,-1.0301429],[9.35136855,-1.03037035],[9.35111785,-1.03054845],[9.35085511,-1.03080177],[9.35066915,-1.03109801],[9.35050404,-1.03140295],[9.35031545,-1.03170538],[9.35004497,-1.03196704],[9.34978425,-1.0321362],[9.34963322,-1.03229225],[9.34976554,-1.03260136],[9.35150015,-1.03109705],[9.35169291,-1.03080118],[9.35196626,-1.03054237],[9.35223281,-1.03035438],[9.35238945,-1.03012812],[9.35237765,-1.02983737],[9.35216916,-1.02962935]],[[9.3487215,-1.03515327],[9.34870172,-1.03480661],[9.34825897,-1.03532362],[9.34817815,-1.03551996],[9.34801984,-1.03567922],[9.34777296,-1.03584802],[9.34751928,-1.03609395],[9.34734225,-1.03633106],[9.34715414,-1.03650725],[9.34689498,-1.03670585],[9.34664845,-1.03704381],[9.34657514,-1.03742194],[9.34695947,-1.03757405],[9.34724855,-1.03730214],[9.34749782,-1.03696883],[9.34776914,-1.03669226],[9.34820461,-1.03635085],[9.34839582,-1.03604031],[9.34862018,-1.03559566],[9.3487215,-1.03515327]],[[9.32327127,-1.64952564],[9.32241094,-1.6484313],[9.31910694,-1.64984381],[9.31884992,-1.65021205],[9.31788826,-1.65225661],[9.31966937,-1.6541059],[9.31979728,-1.65668273],[9.3173877,-1.65829647],[9.31726062,-1.65863585],[9.31740952,-1.65953255],[9.32205927,-1.66378212],[9.32609725,-1.66188443],[9.32693744,-1.66023004],[9.32731843,-1.65299213],[9.32717884,-1.65249205],[9.32650626,-1.65125787],[9.32628286,-1.65096438],[9.32327127,-1.64952564]],[[9.31718135,-1.89038932],[9.31726885,-1.89119565],[9.31871653,-1.88835025],[9.31768596,-1.88819945],[9.31699896,-1.88723326],[9.31718135,-1.89038932]],[[9.24529648,-1.07364082],[9.24927235,-1.08388734],[9.24954224,-1.08415472],[9.25575471,-1.08473444],[9.25621951,-1.0846225],[9.26301777,-1.08265865],[9.27228677,-1.08293891],[9.27289557,-1.08280313],[9.27707934,-1.08116567],[9.27976751,-1.07787585],[9.28161645,-1.07725787],[9.28790915,-1.07863176],[9.29292095,-1.08326864],[9.29773056,-1.08523071],[9.30135274,-1.0829035],[9.30510831,-1.07732594],[9.31589496,-1.07491994],[9.31856477,-1.07123423],[9.3177011,-1.07052004],[9.30166614,-1.07536435],[9.2985785,-1.07749116],[9.28150856,-1.07470965],[9.27295434,-1.07034135],[9.2688241,-1.06898427],[9.26456034,-1.06810975],[9.26077926,-1.06781995],[9.25670254,-1.06827402],[9.24771702,-1.07156217],[9.2467823,-1.07202494],[9.24529648,-1.07364082]],[[9.31710208,-1.06903636],[9.31536865,-1.06829691],[9.31404412,-1.06897151],[9.31063354,-1.07099128],[9.31040585,-1.07196176],[9.31139946,-1.07220316],[9.31671667,-1.07026684],[9.31710208,-1.06903636]],[[9.30745316,-1.90608406],[9.30917966,-1.90908182],[9.30953014,-1.90887284],[9.31164944,-1.90318155],[9.31173468,-1.90257883],[9.31097722,-1.90123594],[9.31029725,-1.90079665],[9.30755484,-1.90556705],[9.30745316,-1.90608406]],[[9.28951836,-1.87590301],[9.29476523,-1.88239396],[9.29671395,-1.88422954],[9.29805255,-1.88425815],[9.29885983,-1.8839066],[9.30121827,-1.88174331],[9.30278957,-1.88084507],[9.30534172,-1.88069725],[9.30803394,-1.87358236],[9.3072741,-1.87067056],[9.30711937,-1.87037897],[9.30495393,-1.8683362],[9.30199754,-1.87074018],[9.29408121,-1.86961341],[9.29367375,-1.86982131],[9.28992367,-1.87394965],[9.28939092,-1.87546051],[9.28951836,-1.87590301]],[[9.30128264,-1.88304424],[9.3017354,-1.88491333],[9.29606032,-1.88603008],[9.29271746,-1.88431382],[9.29213905,-1.8848145],[9.29259181,-1.88967657],[9.29640067,-1.89371395],[9.29752386,-1.89424074],[9.30273294,-1.89495254],[9.30671561,-1.89120042],[9.30752981,-1.89041507],[9.30756354,-1.89000535],[9.30539596,-1.88708937],[9.30642974,-1.88457906],[9.30505276,-1.8815875],[9.30334961,-1.88137746],[9.30185974,-1.88206995],[9.30128264,-1.88304424]],[[9.28990531,-1.87176394],[9.29130948,-1.86957133],[9.29207051,-1.86880124],[9.29571617,-1.86783695],[9.30041397,-1.86973536],[9.30190194,-1.86952758],[9.30225885,-1.86928201],[9.30363846,-1.86612344],[9.30351198,-1.86566782],[9.30130291,-1.86281645],[9.29643846,-1.86432385],[9.29588044,-1.86420751],[9.29159713,-1.86240578],[9.28854406,-1.86521947],[9.28826785,-1.86566257],[9.28759062,-1.86825275],[9.28807592,-1.87095511],[9.28951144,-1.87172711],[9.28990531,-1.87176394]],[[9.29699194,-1.64934564],[9.29515123,-1.64759827],[9.29319441,-1.64611018],[9.29159713,-1.64609313],[9.29334497,-1.64957535],[9.29654574,-1.65017653],[9.29713082,-1.64984345],[9.29699194,-1.64934564]],[[9.28579986,-1.06804311],[9.28536987,-1.06858611],[9.27677035,-1.06828451],[9.28514445,-1.07208395],[9.29297304,-1.07042074],[9.28658664,-1.06840086],[9.28618371,-1.06754661],[9.28579986,-1.06804311]],[[9.28832614,-1.67422724],[9.28859985,-1.67624795],[9.28583682,-1.67983007],[9.29145026,-1.68161535],[9.29171884,-1.68145895],[9.29235256,-1.68041837],[9.29082513,-1.67790365],[9.290874,-1.67562175],[9.28867197,-1.67302716],[9.28832614,-1.67422724]],[[9.29110456,-1.8805747],[9.29064906,-1.8800323],[9.28928816,-1.88075566],[9.29141867,-1.88307405],[9.29169345,-1.88294673],[9.29110456,-1.8805747]],[[9.27497685,-1.09936964],[9.27417767,-1.09997404],[9.27537525,-1.10011053],[9.2791357,-1.09873414],[9.28063214,-1.09675944],[9.27497685,-1.09936964]],[[9.27254057,-1.67488503],[9.27231574,-1.67396951],[9.27194154,-1.67373514],[9.27035308,-1.6737349],[9.27043283,-1.67486596],[9.27080893,-1.67506683],[9.27212632,-1.67517185],[9.27254057,-1.67488503]],[[9.25957537,-1.46055651],[9.26368368,-1.46509087],[9.26581335,-1.46529114],[9.26041508,-1.45959568],[9.25975788,-1.45993865],[9.25957537,-1.46055651]],[[9.25794506,-1.45027792],[9.25885701,-1.44924414],[9.25914943,-1.44711864],[9.25508165,-1.44044864],[9.25705421,-1.43535292],[9.25658751,-1.43327475],[9.2557559,-1.4348793],[9.25224817,-1.43683362],[9.25192952,-1.43831265],[9.25382936,-1.44163454],[9.25350535,-1.44971061],[9.25599217,-1.45125866],[9.25706375,-1.45104504],[9.25794506,-1.45027792]],[[9.25385976,-1.46088695],[9.25318551,-1.46057606],[9.25257766,-1.46239436],[9.25287545,-1.46329975],[9.25544548,-1.46420205],[9.25747263,-1.46331406],[9.25758541,-1.46302605],[9.25385976,-1.46088695]],[[9.24791431,-1.56843555],[9.24818146,-1.56850457],[9.25136364,-1.56718552],[9.25043583,-1.56560385],[9.24651217,-1.565346],[9.24441958,-1.56598771],[9.24441958,-1.56626666],[9.24791431,-1.56843555]],[[8.99693525,-1.26598871],[9.01422977,-1.23046875],[8.99584424,-1.21475697],[9.02329516,-1.21319795],[9.03772545,-1.26310325],[9.01941848,-1.29565632],[9.03559351,-1.34827316],[9.08767641,-1.33272183],[9.11027896,-1.27707243],[9.11406314,-1.17676103],[9.13211501,-1.14003742],[9.17016375,-1.10236621],[9.24842262,-1.08963466],[9.20976985,-1.07241273],[9.14371491,-1.05308473],[9.07116985,-1.06421483],[9.02555215,-1.09026575],[8.96910048,-1.06818402],[8.94691837,-1.03828955],[8.96230233,-1.07910216],[8.97738802,-1.11735022],[8.97020793,-1.11485076],[8.95841301,-1.08414805],[8.93547344,-1.04944241],[8.85075355,-1.00295317],[8.89765048,-1.06349707],[8.99170053,-1.21664464],[8.99693525,-1.26598871]],[[9.20879364,-1.47819364],[9.23314893,-1.51389515],[9.21878231,-1.47975695],[9.21989274,-1.45156801],[9.20008445,-1.45163322],[9.20879364,-1.47819364]],[[9.21500564,-1.0688678],[9.22221911,-1.07302403],[9.22223437,-1.07181394],[9.22030663,-1.0702126],[9.21711123,-1.06734383],[9.21325362,-1.0630877],[9.20923746,-1.06236422],[9.21500564,-1.0688678]],[[9.17689455,-1.05218256],[9.18359375,-1.0546875],[9.18387282,-1.0546875],[9.18798065,-1.05749273],[9.19184053,-1.05851984],[9.19233525,-1.05852056],[9.20041394,-1.05616236],[9.20323515,-1.05690742],[9.20424104,-1.0546875],[9.20415175,-1.05467975],[9.20349765,-1.04936326],[9.20042241,-1.04774356],[9.1852138,-1.04959321],[9.18445694,-1.04947686],[9.17699492,-1.04690444],[9.17289543,-1.04690444],[9.15851414,-1.05205083],[9.17689455,-1.05218256]],[[9.19989765,-1.08580077],[9.19950151,-1.08556926],[9.19894433,-1.08580983],[9.19794571,-1.08624613],[9.19722247,-1.08683467],[9.19699526,-1.08734333],[9.1971724,-1.08758473],[9.19755661,-1.08757925],[9.19792902,-1.08743715],[9.19823587,-1.08728457],[9.19851458,-1.08713615],[9.19882381,-1.0870074],[9.19922447,-1.08683443],[9.19970083,-1.08656812],[9.20001352,-1.08616304],[9.19989765,-1.08580077]],[[9.07889771,-1.35627723],[9.07871771,-1.36378646],[9.12227285,-1.37771797],[9.17017126,-1.32268405],[9.16888952,-1.21566224],[9.14681566,-1.18207633],[9.14716232,-1.1228379],[9.11338055,-1.17071974],[9.11991072,-1.25898325],[9.08740056,-1.33532524],[9.07889771,-1.35627723]],[[9.17683268,-1.49767685],[9.17641473,-1.49756074],[9.16992521,-1.49759734],[9.17336714,-1.49607456],[9.17366731,-1.49420345],[9.16900837,-1.48865294],[9.16074312,-1.48259282],[9.15977907,-1.4859786],[9.16571045,-1.49739516],[9.16502297,-1.49863505],[9.16940665,-1.50108647],[9.17100008,-1.50299732],[9.17312408,-1.50554442],[9.17700291,-1.50846911],[9.17748284,-1.50858665],[9.17978156,-1.50740302],[9.18013847,-1.50697053],[9.18164421,-1.50299732],[9.18178093,-1.50263655],[9.17910028,-1.49878716],[9.17683268,-1.49767685]],[[9.15959823,-1.40625],[9.17399395,-1.44123006],[9.17178488,-1.43089414],[9.16846311,-1.39483535],[9.15959823,-1.40625]],[[9.16332424,-1.41541421],[9.16477776,-1.41559637],[9.16512001,-1.41541827],[9.16502726,-1.4135884],[9.1645987,-1.41265237],[9.16357064,-1.4131726],[9.16297746,-1.41450346],[9.16332424,-1.41541421]],[[9.15179884,-1.44030821],[9.14965987,-1.43941545],[9.14779615,-1.44174123],[9.14736414,-1.44284356],[9.14744484,-1.44336736],[9.14902365,-1.44748104],[9.15055966,-1.44918954],[9.15276933,-1.45002663],[9.1581521,-1.45083535],[9.15886188,-1.45063186],[9.16040838,-1.44855142],[9.16049612,-1.44716954],[9.15650618,-1.44520795],[9.15356088,-1.44295955],[9.15203846,-1.44048381],[9.15179884,-1.44030821]],[[9.15756476,-2.07468045],[9.15784836,-2.07524276],[9.15865636,-2.07503903],[9.15888286,-2.07460296],[9.15889597,-2.07235396],[9.15756476,-2.07468045]],[[9.07762265,-1.03503215],[9.0729655,-1.03704715],[9.0651319,-1.03607786],[9.06011534,-1.03638446],[9.05932558,-1.03665376],[9.05791152,-1.03771043],[9.05200565,-1.04778373],[9.06097364,-1.05161166],[9.06855237,-1.05644417],[9.07475495,-1.06269026],[9.08035445,-1.07205606],[9.08444965,-1.07472074],[9.08661735,-1.07523036],[9.09025276,-1.07530415],[9.09389961,-1.07374537],[9.09428072,-1.07347906],[9.09991753,-1.06417513],[9.10019922,-1.06381536],[9.10304487,-1.06100345],[9.10435414,-1.06030977],[9.10890734,-1.0582298],[9.11895585,-1.05562043],[9.12884188,-1.05494702],[9.13141716,-1.05424845],[9.13648558,-1.05100441],[9.13461185,-1.04980564],[9.12452841,-1.04890585],[9.12412465,-1.04878664],[9.11326194,-1.04451191],[9.10977662,-1.0429039],[9.10003841,-1.03686857],[9.09593201,-1.03472042],[9.09472275,-1.03437543],[9.08408415,-1.0318377],[9.08098423,-1.03189266],[9.07800674,-1.03482556],[9.07762265,-1.03503215]],[[9.10395575,-1.39206374],[9.10248196,-1.39181113],[9.10129797,-1.39220023],[9.09842551,-1.39828765],[9.09701753,-1.40217471],[9.09681904,-1.40625],[9.09746814,-1.40911961],[9.09890485,-1.41018713],[9.10985935,-1.41230166],[9.11128151,-1.41210365],[9.11408913,-1.40862215],[9.11495531,-1.40625],[9.11587191,-1.39889622],[9.10395575,-1.39206374]],[[9.09753573,-1.07355464],[9.09444463,-1.07654071],[9.09467721,-1.07682002],[9.09611225,-1.07709825],[9.10028875,-1.07558632],[9.10254955,-1.07412422],[9.10621071,-1.0704658],[9.10886252,-1.06623852],[9.1095407,-1.06348765],[9.10873365,-1.06254625],[9.10491467,-1.06285262],[9.10444725,-1.06316543],[9.09753573,-1.07355464]],[[9.10309267,-0.69849563],[9.10148883,-0.69961345],[9.10253358,-0.70109963],[9.10282481,-0.70109904],[9.10422063,-0.69927704],[9.10422313,-0.69751787],[9.10309267,-0.69849563]],[[9.10321236,-1.41294336],[9.10225487,-1.41241157],[9.09924877,-1.41272056],[9.10129583,-1.41538596],[9.10178256,-1.41542876],[9.10223436,-1.41484964],[9.10158932,-1.41367304],[9.10309315,-1.41346908],[9.10321236,-1.41294336]],[[9.09667516,-0.69418836],[9.0969851,-0.69426894],[9.10012245,-0.69030094],[9.10123408,-0.68507302],[9.10040784,-0.68341362],[9.09544325,-0.68286192],[9.09529245,-0.68247807],[9.09366155,-0.68401456],[9.09270585,-0.6896311],[9.09480107,-0.69335365],[9.09667516,-0.69418836]],[[9.09223223,-1.37520075],[9.09193873,-1.37505925],[9.09130645,-1.37708902],[9.09012616,-1.37749362],[9.09403443,-1.38052225],[9.09432471,-1.38045013],[9.09354484,-1.37710285],[9.09223223,-1.37520075]],[[9.07655907,-0.69747305],[9.07766962,-0.69854057],[9.07877946,-0.69848204],[9.08448613,-0.69651806],[9.08544123,-0.69586992],[9.08729827,-0.69373155],[9.08809304,-0.69056475],[9.0878607,-0.68712544],[9.08647025,-0.68323064],[9.08602226,-0.68279207],[9.07741141,-0.67888153],[9.07522035,-0.68010533],[9.07486236,-0.68172872],[9.07655907,-0.69747305]],[[8.99147105,-0.93289912],[8.98093581,-0.96408176],[8.99539757,-1.02396595],[9.07954705,-1.02974093],[9.03637195,-0.97036564],[8.99147105,-0.93289912]],[[9.05041635,-1.05128086],[8.98986578,-1.02832985],[8.97932315,-1.05398881],[8.99375248,-1.09232545],[9.06103206,-1.06169152],[9.05041635,-1.05128086]],[[9.03185475,-0.67689395],[9.03037417,-0.70658386],[9.01565051,-0.72048736],[9.00275481,-0.73315501],[8.99819326,-0.78391945],[8.99751115,-0.78969645],[8.96959293,-0.74755764],[8.98174012,-0.81003082],[9.0233587,-0.82347357],[9.03969455,-0.75853336],[9.06417406,-0.703125],[9.03939438,-0.66814685],[9.03185475,-0.67689395]],[[8.99400902,-0.64790952],[8.95554101,-0.67715478],[8.94806445,-0.69297278],[8.97594964,-0.72842324],[9.00458276,-0.72527528],[9.01774406,-0.70759487],[9.02599847,-0.69741833],[9.03281248,-0.65964687],[9.00224125,-0.66306317],[9.00373256,-0.66873002],[9.01263642,-0.63749325],[8.99400902,-0.64790952]],[[9.02500927,-1.04767704],[9.03076458,-1.05043066],[9.03189313,-1.05025685],[9.03363025,-1.0494647],[9.03359854,-1.04895544],[9.032305,-1.04783034],[9.02845144,-1.04588401],[9.0235815,-1.04416621],[9.02270615,-1.04476261],[9.02500927,-1.04767704]],[[9.02552247,-1.25468898],[9.02468193,-1.25624287],[9.02182603,-1.25774157],[9.02183676,-1.25814402],[9.02533925,-1.26454723],[9.02670777,-1.26613522],[9.02720726,-1.26581621],[9.02925885,-1.26373684],[9.0323137,-1.25506794],[9.03230965,-1.2547369],[9.02814138,-1.24370778],[9.02676165,-1.24268317],[9.02517438,-1.24579453],[9.02672935,-1.25023305],[9.02588916,-1.25398088],[9.02552247,-1.25468898]],[[9.02924287,-1.23859262],[9.02873635,-1.23852158],[9.02814782,-1.23933315],[9.02823603,-1.24070168],[9.02886522,-1.24213088],[9.02926385,-1.24203277],[9.03008246,-1.24068511],[9.03007293,-1.24004841],[9.02924287,-1.23859262]],[[9.02396607,-0.85288513],[9.02457356,-0.85291731],[9.02478921,-0.85258365],[9.02507246,-0.84842944],[9.02414417,-0.84958136],[9.02396607,-0.85288513]],[[9.01635063,-1.27100122],[9.0199064,-1.27117586],[9.02343285,-1.27018476],[9.02481663,-1.26856446],[9.02473474,-1.26472044],[9.02066612,-1.2618916],[9.01722836,-1.25684977],[9.01630771,-1.25310576],[9.00961864,-1.25024211],[9.00788498,-1.25335646],[9.00789034,-1.25385225],[9.00823855,-1.25878048],[9.01028764,-1.26217568],[9.01032317,-1.26512945],[9.01451921,-1.27019608],[9.01500654,-1.27051663],[9.01635063,-1.27100122]],[[8.99287581,-0.81230223],[8.95968175,-0.79771197],[8.93858421,-0.73373246],[8.91361928,-0.72129071],[8.88812482,-0.74195611],[8.9093914,-0.78844285],[8.95507812,-0.87890625],[9.00826716,-0.92357516],[9.02424455,-0.84778786],[8.99287581,-0.81230223]],[[9.02363956,-1.22972727],[9.02296793,-1.22713184],[9.02207303,-1.22837818],[9.02204227,-1.23046875],[9.02230823,-1.23128295],[9.02261901,-1.23127282],[9.02315843,-1.23046875],[9.0234375,-1.23046875],[9.02363956,-1.22972727]],[[9.01708066,-1.2538172],[9.01767445,-1.25493383],[9.01829088,-1.25485218],[9.02181995,-1.25126302],[9.02253938,-1.24841285],[9.02163255,-1.24684274],[9.01859617,-1.24931645],[9.01807034,-1.25042868],[9.0170871,-1.25316095],[9.01708066,-1.2538172]],[[9.0168668,-1.04043376],[9.01864338,-1.04059482],[9.01272595,-1.03527665],[9.01185465,-1.03484166],[9.01113546,-1.03563106],[9.01162124,-1.03681266],[9.01386094,-1.03875816],[9.0168668,-1.04043376]],[[9.01822936,-0.68069768],[9.01809752,-0.67880535],[9.01733911,-0.67955482],[9.01747155,-0.68073976],[9.01803875,-0.68105781],[9.01822936,-0.68069768]],[[9.01781964,-1.21302152],[9.01572955,-1.21155381],[9.0129317,-1.21188283],[9.01265085,-1.2121464],[9.01259875,-1.21390915],[9.01288605,-1.21420586],[9.01528251,-1.21477497],[9.01599264,-1.21468425],[9.01805675,-1.21351886],[9.01781964,-1.21302152]],[[9.01558757,-1.29276252],[9.01704955,-1.28707623],[9.01532495,-1.28423095],[9.01280773,-1.28113174],[9.01246035,-1.28099418],[9.00840187,-1.28240395],[9.01021755,-1.27987325],[9.01109397,-1.27591383],[9.01112068,-1.27508867],[9.01105213,-1.27466631],[9.01009941,-1.27466071],[9.00974691,-1.26994765],[9.00841296,-1.26837635],[9.00654507,-1.26720536],[9.00244784,-1.27120304],[9.00088966,-1.27163625],[9.00104475,-1.27041674],[8.99989474,-1.27023995],[8.9962666,-1.27380943],[8.99532032,-1.27282727],[8.99623537,-1.27291465],[8.99679494,-1.27095354],[8.9922564,-1.27158535],[8.99206686,-1.27180862],[8.99832594,-1.28194737],[9.00464594,-1.29513156],[9.00513518,-1.29564393],[9.0081954,-1.29724014],[9.00890625,-1.29737186],[9.01116645,-1.29712045],[9.011608,-1.29692984],[9.01413417,-1.29484606],[9.01558757,-1.29276252]],[[9.01199412,-1.31602907],[9.01109004,-1.31563842],[9.00976324,-1.31595063],[9.00972605,-1.31715763],[9.01183021,-1.31773794],[9.01215005,-1.31772053],[9.01199412,-1.31602907]],[[9.00719702,-1.30352795],[9.00544083,-1.30189717],[9.00384021,-1.30250525],[9.00413775,-1.30353558],[9.00454223,-1.30369222],[9.00807464,-1.30450785],[9.00793636,-1.30400026],[9.00719702,-1.30352795]],[[9.00559795,-1.25365734],[9.00524795,-1.25358903],[9.00374484,-1.25495672],[9.00281847,-1.25921476],[9.00551665,-1.26081622],[9.00629306,-1.26077294],[9.00694823,-1.26021886],[9.00654173,-1.25522184],[9.00559795,-1.25365734]],[[9.00162995,-1.20467234],[9.00123692,-1.20447278],[9.00102735,-1.20692515],[9.0025171,-1.20950115],[9.00329733,-1.20715034],[9.00162995,-1.20467234]],[[8.94216645,-1.03726196],[8.9910202,-1.02515352],[8.92225027,-1.00345325],[8.89196396,-1.03306067],[8.91043437,-1.04988563],[8.94216645,-1.03726196]],[[8.88535595,-1.02087915],[8.93473756,-0.98958457],[8.9723711,-0.95880055],[8.94453025,-0.84332073],[8.90489447,-0.80294895],[8.89345837,-0.7690382],[8.88164234,-0.78221762],[8.9058032,-0.76347888],[8.85944545,-0.78472722],[8.85243022,-0.82998383],[8.88857341,-0.84999466],[8.85259378,-0.84568465],[8.8024801,-0.79165137],[8.79115677,-0.72389042],[8.78660786,-0.71659744],[8.77816677,-0.6793226],[8.7564187,-0.68109977],[8.72939086,-0.65036094],[8.72039497,-0.64982295],[8.71269023,-0.6201266],[8.70009518,-0.66647005],[8.7890625,-0.85239947],[8.85375726,-0.95242214],[8.87133217,-0.99896741],[8.88191986,-1.01689196],[8.88535595,-1.02087915]],[[8.9647243,-0.79110157],[8.96662652,-0.79352963],[8.96786594,-0.79428244],[8.96824253,-0.79419851],[8.96925914,-0.79299831],[8.96898675,-0.79205155],[8.96780443,-0.78954315],[8.96588278,-0.78810847],[8.96461523,-0.79039442],[8.9647243,-0.79110157]],[[8.96339595,-0.79345524],[8.96396041,-0.79351556],[8.96364045,-0.78668487],[8.96240377,-0.78197014],[8.96018982,-0.77657247],[8.95749748,-0.77423894],[8.95594776,-0.77529407],[8.95725644,-0.78279853],[8.95552456,-0.78466713],[8.95554698,-0.7868427],[8.95799565,-0.79014051],[8.96148455,-0.79143774],[8.96339595,-0.79345524]],[[8.95482671,-0.76636863],[8.95541537,-0.76709688],[8.95619094,-0.76679015],[8.95621097,-0.76598954],[8.95491672,-0.76473403],[8.95482671,-0.76636863]],[[8.91808331,-0.71027982],[8.91735578,-0.71016026],[8.91683412,-0.71040726],[8.91660285,-0.71383154],[8.91743052,-0.71664608],[8.91864145,-0.71727026],[8.91893637,-0.71717846],[8.92102253,-0.71604645],[8.92182183,-0.71435535],[8.92174578,-0.71382701],[8.91808331,-0.71027982]],[[8.91503823,-1.01791143],[8.91413271,-1.0178318],[8.90358436,-1.02266407],[8.90330136,-1.02281797],[8.90062284,-1.02479231],[8.90000904,-1.02574885],[8.90016043,-1.02642012],[8.90138257,-1.02700496],[8.90567362,-1.02731347],[8.90645492,-1.02714551],[8.91069496,-1.02630961],[8.91328335,-1.02456248],[8.91484785,-1.02245605],[8.91601253,-1.01845896],[8.91591024,-1.01816654],[8.91503823,-1.01791143]],[[8.79919434,-0.73136997],[8.7984277,-0.73008025],[8.79799104,-0.73060822],[8.79795206,-0.73381245],[8.79828894,-0.73359394],[8.79919434,-0.73136997]],[[8.79696977,-0.73847771],[8.79678083,-0.73617494],[8.79557276,-0.73670936],[8.79540431,-0.7396301],[8.79622924,-0.73950315],[8.79696977,-0.73847771]]]]}},{"type":"Feature","properties":{"name":"Gabon","layer":"land","source":"Natural Earth 110m"},"geometry":{"type":"Polygon","coordinates":[[[11.276449,2.261051],[11.751665,2.326758],[12.35938,2.192812],[12.951334,2.321616],[13.075822,2.267097],[13.003114,1.830896],[13.282631,1.314184],[14.026669,1.395677],[14.276266,1.19693],[13.843321,0.038758],[14.316418,-0.552627],[14.425456,-1.333407],[14.29921,-1.998276],[13.992407,-2.470805],[13.109619,-2.42874],[12.575284,-1.948511],[12.495703,-2.391688],[11.820964,-2.514161],[11.478039,-2.765619],[11.855122,-3.426871],[11.093773,-3.978827],[10.066135,-2.969483],[9.405245,-2.144313],[8.797996,-1.111301],[8.830087,-0.779074],[9.04842,-0.459351],[9.291351,0.268666],[9.492889,1.01012],[9.830284,1.067894],[11.285079,1.057662],[11.276449,2.261051]]]}}]}